id,est,nord,lat,lon,codicechiave,id_tipologia,tipologia,id_categoria,categoria_prevalente,denominazione,indirizzo,localita,comune,provincia,numero_sedi
"5001","1612472","4842033","43.722648  ","10.396000  ","050026EC001","3","Monumento o complesso monumentale","1","Arte","BATTISTERO DI PISA","Piazza del Duomo ","","Pisa","PI","1"
"5004","1612472","4842033","43.722648  ","10.396000  ","050026EC005","3","Monumento o complesso monumentale","1","Arte","CAMPOSANTO MONUMENTALE","Piazza del Duomo ","","Pisa","PI","1"
"5986","1664936","4823647","43.547405  ","11.041373  ","048012ST001","1","Museo","3","Storia","CASA DEL BOCCACCIO","Via Boccaccio ","","Certaldo","FI","1"
"4010","1680572","4822717","43.535422  ","11.234480  ","048045EP001","1","Museo","6","Etnografia e antropologia","MUSEO EMILIO FERRARI DI CULTURA CONTADINA","Via del Giglio 47","San Donato in Poggio","Tavarnelle Val di Pesa","FI","1"
"4118","1722374","4729044","42.681620  ","11.713812  ","053026NW001","2","Siti archeologici","2","Archeologia","PARCO ARCHEOLOGICO CITTA' DEL TUFO","Piazza del Municipio 15","Sorano","Sorano","GR","4"
"4120","1624577","4753246","","","049012PV001","1","Museo","2","Archeologia","MUSEO ETRUSCO 'GASPARRI'","Via di Sotto 8","Populonia Castello","Piombino","LI","1"
"4303","1673884","4817282","43.488111  ","11.150027  ","048003EC001","1","Museo","2","Archeologia","ANTIQUARIUM DI SANT'APPIANO","Località S. Appiano 1","","Barberino Val d'Elsa","FI","1"
"4304","1680673","4822949","43.537487  ","11.235814  ","048045EC001","1","Museo","1","Arte","MUSEO VICARIALE DI ARTE SACRA DI TAVARNELLE VAL DI PESA","Via della Pieve 19","Pieve di S. Pietro in Bossolo","Tavarnelle Val di Pesa","FI","1"
"4305","1676180","4836140","43.657245  ","11.184533  ","048038MA001","1","Museo","1","Arte","MUSEO DI SAN CASCIANO","Via Lucardesi 6","","San Casciano Val di Pesa","FI","1"
"4309","1686956","4828197","43.583158  ","11.315322  ","048021MA001","1","Museo","1","Arte","MUSEO D'ARTE SACRA DI S. FRANCESCO","Via San Francesco 4","","Greve in Chianti","FI","1"
"4310","1681780","4839381","43.685055  ","11.255016  ","048022EC001","1","Museo","1","Arte","MUSEO D'ARTE SACRA SANTA MARIA IMPRUNETA","Piazza Buondelmonti 28","","Impruneta","FI","1"
"4323","1662595","4853502","43.816564  ","11.021420  ","100002EP002","3","Monumento o complesso monumentale","1","Arte","PARCO MUSEO QUINTO MARTINI","Via Pistoiese ","Seano","Carmignano","PO","1"
"4363","1683719","4850586","43.785389  ","11.282879  ","048017NW007","1","Museo","4","Storia e scienze naturali","MUSEO AGRARIO TROPICALE DELL'ISTITUTO AGRONOMICO PEROLTREMARE","Via Antonio Cocchi 4","","Firenze","FI","1"
"4365","1655054","4850096","43.787537  ","10.926722  ","048050PV001","1","Museo","5","Scienza e tecnica","MUSEO IDEALE LEONARDO DA VINCI","Via Montalbano 2","","Vinci","FI","2"
"4369","1753475","4828926","43.570073  ","12.138503  ","051034NW001","1","Museo","1","Arte","MUSEO DELLA CHIESA DI SAN LORENZO","Via Santa Croce 3","","Sansepolcro","AR","1"
"4376","1624582","4753202","42.921141  ","10.526156  ","049012NW001","1","Museo","4","Storia e scienze naturali","ISTITUTO DI BIOLOGIA ED ECOLOGIA MARINA DI PIOMBINO","Piazza Bovio 3/4","","Piombino","LI","1"
"4435","1640570","4840050","43.700020  ","10.744174  ","050009NW002","1","Museo","2","Archeologia","MUSEO ARCHEOLOGICO DI CASTELFRANCO DI SOTTO","Viale Galileo Galilei 37","","Castelfranco di Sotto","PI","1"
"4458","1683445","4847348","43.756319  ","11.278377  ","048017PV015","5","Centri scientifici-culturali","3","Storia","FONDAZIONE DI STUDI DI STORIA DELL'ARTE ROBERTO LONGHI","Via Benedetto Fortini 30","","Firenze","FI","1"
"4470","1684023","4853329","43.809987  ","11.287604  ","048015EC001","1","Museo","1","Arte","MUSEO 'BANDINI'","Via Dupré 1","","Fiesole","FI","1"
"4480","1719620","4805005","43.365663  ","11.710135  ","051016XX4129","1","Museo","6","Etnografia e antropologia","MUSEO DELLA VITE E DEL VINO DI CIGGIANO","Piazza Alta ","Ciggiano","Civitella in Val di Chiana","AR","1"
"4483","1707484","4822265","43.524366  ","11.567074  ","051026PV001","1","Museo","4","Storia e scienze naturali","MUSEO PALEONTOLOGICO DI MONTEVARCHI","Via Poggio Bracciolini 36-40","","Montevarchi","AR","1"
"6086","1753620","4829169","","","051034XX4189","1","Museo","2","Archeologia","CENTRO STUDI SUL QUATERNARIO ONLUS","Via Nuova dell'Ammazzatoio 7","","Sansepolcro","AR","1"
"4494","1691490","4728882","42.688463  ","11.337141  ","053023EP001","1","Museo","2","Archeologia","MUSEO ARCHEOLOGICO E DELLA VITE E DEL VINO DI SCANSANO","Piazza Pretorio ","","Scansano","GR","1"
"4500","1656917","4842729","43.720854  ","10.947704  ","048014XX3805","1","Museo","8","Specializzato","MuVe - MUSEO DEL VETRO DI EMPOLI","Via Ridolfi 70","","Empoli","FI","1"
"4505","1681030","4848389","43.766283  ","11.248755  ","048017NW001","1","Museo","8","Specializzato","ART ATHLETIC CENTER, MUSEO STORICO DEGLI ATTREZZI SPORTIVI WALTER RONTANI","Via Maggio 39","","Firenze","FI","1"
"4506","1682163","4848711","43.768904  ","11.262923  ","048017XX4131","3","Monumento o complesso monumentale","3","Storia","CASA STUDIO DI PIERO BARGELLINI","Via delle Pinzochere 3","","Firenze","FI","1"
"4513","1682410","4850225","43.782463  ","11.266510  ","048017EP010","1","Museo","1","Arte","GALLERIA RINALDO CARNIELO","Piazza Savonarola 3","","Firenze","FI","1"
"4522","1681922","4849625","43.777182  ","11.260247  ","048017NW009","1","Museo","5","Scienza e tecnica","MUSEO STRUMENTI DELL'ISTITUTO GEOGRAFICO MILITARE","Via Cesare Battisti 10","","Firenze","FI","1"
"4529","1681951","4848597","43.767928  ","11.260252  ","048017XX4357","1","Museo","1","Arte","CASA GIORGIO VASARI A FIRENZE ","Borgo Santa Croce 8","","Firenze","FI","1"
"4530","1680923","4849254","43.774087  ","11.247710  ","048017XX3807","1","Museo","8","Specializzato","MUSEO DELL'OFFICINA PROFUMO - FARMACEUTICA DI SANTA MARIA NOVELLA","Via della Scala 16","","Firenze","FI","1"
"4532","1686419","4851773","43.795392  ","11.316829  ","048015XX3871","3","Monumento o complesso monumentale","1","Arte","VILLA PEYRON AL BOSCO DI FONTE LUCENTE ","Via di Vincigliata 2","","Fiesole","FI","1"
"4534","1667250","4832965","43.630735  ","11.072880  ","048030EC001","1","Museo","1","Arte","MUSEO D'ARTE SACRA DI MONTESPERTOLI","Via di San Piero in Mercato 233","","Montespertoli","FI","1"
"4535","1645592","4843469","43.729817  ","10.807386  ","048019XX4127","5","Centri scientifici-culturali","3","Storia","FONDAZIONE MONTANELLI BASSI","Via Guglielmo San Giorgio 2","","Fucecchio","FI","1"
"4545","1653873","4866305","43.933632  ","10.916717  ","047014EP006","1","Museo","1","Arte","MUSEO CIVICO DI PISTOIA","Piazza del Duomo 1","","Pistoia","PT","1"
"4550","1651216","4752244","42.907709  ","10.852081  ","053024EP001","1","Museo","2","Archeologia","CENTRO DOCUMENTAZIONE DEL TERRITORIO RICCARDO FRANCOVICH","Via della Rocca ","","Scarlino","GR","1"
"4551","1645440","4751641","42.903402  ","10.781194  ","053024XX3869","1","Museo","2","Archeologia","MUSEO ARCHEOLOGICO DEL PORTUS SCABRIS ","Via delle Collacchie 1","Puntone","Scarlino","GR","1"
"4556","1630991","4780028","43.161536  ","10.610955  ","049006PV002","5","Centri scientifici-culturali","3","Storia","CENTRO DI VALORIZZAZIONE CASA CARDUCCI","Via Carducci 59","","Castagneto Carducci","LI","1"
"4557","1630936","4779944","43.160786  ","10.610254  ","049006EP001","1","Museo","3","Storia","MUSEO ARCHIVIO GIOSUE' CARDUCCI","Via G. Carducci 1","","Castagneto Carducci","LI","1"
"4580","1608769","4740805","42.811953  ","10.330056  ","049014EP003","1","Museo","2","Archeologia","MUSEO CIVICO ARCHEOLOGICO DELLA LINGUELLA","Calata Buccari ","","Portoferraio","LI","1"
"4583","1608905","4741246","42.815907  ","10.331802  ","049014EP001","1","Museo","1","Arte","PINACOTECA COMUNALE FORESIANA","Salita Napoleone ","","Portoferraio","LI","1"
"4584","1619461","4806820","43.404610  ","10.474991  ","049017EP001","1","Museo","2","Archeologia","MUSEO CIVICO ARCHEOLOGICO PALAZZO BOMBARDIERI","Via del Castello 24","","Rosignano Marittimo","LI","1"
"4589","1614065","4806456","43.402173  ","10.408296  ","049017XX4308","1","Museo","2","Archeologia","MUSEO ARCHEOLOGICO NAZIONALE DI CASTIGLIONCELLO","Via Del Museo 8","Castiglioncello","Rosignano Marittimo","LI","1"
"4590","1616045","4805123","43.389868  ","10.432452  ","049017NW001","1","Museo","4","Storia e scienze naturali","MUSEO DI SCIENZE NATURALI","Via Monte alla Rena 41/43","Rosignano Solvay","Rosignano Marittimo","LI","1"
"4597","1621064","4855366","43.841307  ","10.505641  ","046017EC002","1","Museo","1","Arte","MUSEO DELLA CATTEDRALE ","Piazza Antelminelli ","","Lucca","LU","1"
"4598","1620955","4855358","43.841252  ","10.504284  ","046017EC003","3","Monumento o complesso monumentale","2","Archeologia","BATTISTERO E CHIESA DEI SS. GIOVANNI E REPARATA","Piazza San Giovanni ","","Lucca","LU","1"
"4599","1620982","4855293","43.840664  ","10.504613  ","046017EC001","3","Monumento o complesso monumentale","1","Arte","SACRESTIA DEL DUOMO E MONUMENTO DI ILARIA DEL CARRETTO","Piazza San Martino ","","Lucca","LU","1"
"4601","1620580","4855336","43.841114  ","10.499615  ","046017EP002","1","Museo","8","Specializzato","MUSEO ITALIANO DEL FUMETTO E DELL'IMMAGINE DI LUCCA","Piazza San Romano 4","","Lucca","LU","1"
"4603","1609573","4856508","43.853375  ","10.362976  ","046018EP001","2","Siti archeologici","2","Archeologia","PADIGLIONE ESPOSITIVO ""GUGLIELMO LERA"" - AREA ARCHEOLOGICA ""MASSACIUCCOLI ROMANA""","Via Pietra a Padule ","Massaciuccoli","Massarosa","LU","1"
"4607","1688247","4846081","43.743716  ","11.337534  ","048001EP001","3","Monumento o complesso monumentale","1","Arte","ORATORIO DI SANTA CATERINA DELLE RUOTE","Via del Carota ","Ponte a Ema","Bagno a Ripoli","FI","1"
"4609","1699737","4832206","43.615906  ","11.474963  ","048016EP001","1","Museo","8","Specializzato","ANTICA SPEZIERIA SPEDALE SERRISTORI","Piazza XXV Aprile ","","Figline Valdarno","FI","1"
"4610","1699513","4832392","43.617633  ","11.472255  ","048016EC002","1","Museo","1","Arte","RACCOLTA D'ARTE SACRA DELLA COLLEGIATA DI SANTA MARIA ASSUNTA","Piazza Marsilio Ficino 43","","Figline Valdarno","FI","1"
"4614","1613381","4868965","","","046022PV003","1","Museo","6","Etnografia e antropologia","MOLINO DI MENICONE","Località Menicone  2","S. Martino in Freddana","Pescaglia","LU","1"
"4618","1630325","4855099","43.837324  ","10.620739  ","046026EP001","1","Museo","2","Archeologia","MOSTRA DIDATTICA ARCHEOLOGICA","Via Roma 121","","Porcari","LU","1"
"4621","1599858","4858419","43.871956  ","10.242498  ","046033XX4295","6","Centro espositivo","1","Arte","CENTRO MATTEUCCI PER L'ARTE MODERNA","Via Gabriele D'Annunzio 28","","Viareggio","LU","1"
"4628","1589673","4898810","44.236838  ","10.122597  ","045007EP001","1","Museo","1","Arte","RACCOLTA D'ARTE SACRA DELL'EX CONVENTO DEGLI AGOSTINIANI","Via Umberto I 20","","Fivizzano","MS","1"
"4631","1591554","4876512","44.035893  ","10.142275  ","045010EC001","1","Museo","1","Arte","MUSEO DIOCESANO DI MASSA","Via Alberica 26","","Massa","MS","1"
"4634","1699443","4832533","43.618927  ","11.471444  ","048016XX3872","1","Museo","1","Arte","FONDAZIONE GIOVANNI PRATESI ","Piazza Marsilio Ficino ","","Figline Valdarno","FI","1"
"4639","1701858","4779246","43.138919  ","11.481712  ","052003NW001","1","Museo","1","Arte","LA MISERICORDIA PATRIMONIO E TESTIMONIANZE","Via Soccini 15/19","","Buonconvento","SI","1"
"4644","1633664","4848696","43.779108  ","10.660658  ","050009NW001","1","Museo","2","Archeologia","MUSEO ARCHEOLOGICO DI ORENTANO","Via Martiri della Libertà ","Orentano","Castelfranco di Sotto","PI","1"
"4650","1640706","4829229","43.602605  ","10.743035  ","050024PV001","1","Museo","6","Etnografia e antropologia","MUSEO DEL LAVORO E DELLA CIVILTA' RURALE","Via Palaiese ","San Gervasio","Palaia","PI","1"
"4651","1641752","4826439","43.577301  ","10.755259  ","050024NW001","1","Museo","6","Etnografia e antropologia","MUSEO DELLA CIVILTA' CONTADINA DI MONTEFOSCOLI","Via A. Vacca 45","Montefoscoli","Palaia","PI","1"
"4653","1650819","4867819","43.947893  ","10.879117  ","047014MA002","1","Museo","1","Arte","FONDAZIONE PISTOIESE JORIO VIVARELLI","Via di Felceti 11","Arcigliano","Pistoia","PT","1"
"4662","1612892","4841243","","","050026EP002","2","Siti archeologici","2","Archeologia","CANTIERE DELLE NAVI ANTICHE DI PISA","Via Ranuccio Bianchi Bandinelli ","","Pisa","PI","1"
"4663","1612568","4841721","43.719828  ","10.397125  ","050026US008","1","Museo","4","Storia e scienze naturali","MUSEO BOTANICO E ORTO BOTANICO DELL'UNIVERSITA' DI PISA","Via Luca Ghini 5","","Pisa","PI","1"
"4664","1671727","4809950","43.422631  ","11.121068  ","052012EP001","1","Museo","1","Arte","MUSEO CIVICO E DIOCESANO DI ARTE SACRA DI COLLE VAL D'ELSA","Via del Castello 33","","Colle Val d'Elsa","SI","1"
"4665","1652033","4795698","43.298628  ","10.873970  ","050027NW001","1","Museo","2","Archeologia","MUSEO GUERRIERI E ARTIGIANI","Via Roncalli 14","","Pomarance","PI","1"
"6091","1668559","4860934","43.882097  ","11.097872  ","100005EC003","1","Museo","1","Arte","MUSEO DELL'OPERA DEL DUOMO","Piazza del Duomo 49","","Prato","PO","1"
"4669","1649175","4837963","43.679553  ","10.850326  ","050032PV003","1","Museo","1","Arte","COLLEZIONE DELL'ARCICONFRATERNITA DELLA MISERICORDIA","Via Augusto Conti 40-42","","San Miniato","PI","1"
"4670","1649977","4838093","43.680567  ","10.860308  ","050032PV002","1","Museo","3","Storia","MUSEO ACCADEMIA DEGLI EUTELETI","Via XX Settembre 21","","San Miniato","PI","1"
"4671","1651738","4882321","44.078192  ","10.894720  ","047014PV002","4","Ecomusei","6","Etnografia e antropologia","ECOMUSEO DELLA MONTAGNA PISTOIESE - ITINERARIO DELLA VITA QUOTIDIANA. MOLINO DI GIAMBA E DI BERTO E LA VIA DEL CARBONE","Via di Paoluccio Orsigna 1","Orsigna","Pistoia","PT","1"
"4677","1668363","4860709","43.880120  ","11.095364  ","100005NW001","1","Museo","1","Arte","MUSEO CASA FRANCESCO DATINI","Via Ser Lapo Mazzei 43","","Prato","PO","1"
"4678","1697215","4837255","43.661995  ","11.445577  ","048023EP001","1","Museo","1","Arte","MUSEO DI ARTE SACRA DI INCISA IN VAL D'ARNO","Via Castellana ","","Incisa in Val d'Arno","FI","1"
"6082","1672315","4878854","44.042458  ","11.150397  ","100007NW001","1","Museo","8","Specializzato","MUMAT - MUSEO DELLE MACCHINE TESSILI","Via della Posta Vecchia ","Mercatale","Vernio","PO","1"
"4680","1650899","4853758","","","047006XX4385","1","Museo","6","Etnografia e antropologia","MUSEO DELLA CIVILTA' CONTADINA CASA DEI ","Via Traversa di Brugnana 1","","Larciano","PT","1"
"4682","1635603","4862377","43.901879  ","10.688202  ","047012NW002","3","Monumento o complesso monumentale","1","Arte","STORICO GIARDINO GARZONI E VILLA GARZONI","Piazza della Vittoria 1","Collodi","Pescia","PT","1"
"4685","1746967","4825435","43.540867  ","12.056441  ","051001EP001","1","Museo","3","Storia","PALAZZO DELLA BATTAGLIA - MUSEO DELLE MEMORIE E DEL PAESAGGIO NELLA TERRA DI ANGHIARI","Piazza Mameli 1 e 2","","Anghiari","AR","1"
"4686","1635521","4861990","43.898406  ","10.687090  ","047012EP001","1","Museo","4","Storia e scienze naturali","MUSEO CIVICO DI SCIENZE NATURALI E ARCHEOLOGIA DELLA VALDINIEVOLE","Piazza Leonardo da Vinci ","","Pescia","PT","1"
"4688","1633179","4860878","43.888827  ","10.657656  ","047012PV001","3","Monumento o complesso monumentale","8","Specializzato","PARCO MONUMENTALE DI PINOCCHIO","Via S. Gennaro 3","Collodi","Pescia","PT","1"
"4690","1653999","4866463","43.935027  ","10.918338  ","047014XX3844","1","Museo","2","Archeologia","PISTOIA SOTTERRANEA","Piazza Giovanni XXIII 13","","Pistoia","PT","1"
"4691","1645813","4879712","44.055920  ","10.820039  ","047019EP001","1","Museo","3","Storia","MUSEO FERRUCCIANO DI GAVINANA","Piazza Francesco Ferrucci ","Gavinana","San Marcello Pistoiese","PT","1"
"4692","1643542","4879647","","","047019NW001","5","Centri scientifici-culturali","5","Scienza e tecnica","OSSERVATORIO ASTRONOMICO DELLA MONTAGNA PISTOIESE","Piana dei Termini ","Gavinana","San Marcello Pistoiese","PT","1"
"4693","1732979","4816022","43.460718  ","11.879502  ","052032XX018","2","Siti archeologici","2","Archeologia","ANFITEATRO ROMANO DI AREZZO","Via Margaritone 10","","Arezzo","AR","1"
"4694","1732839","4816820","43.467936  ","11.878114  ","051002ST002","1","Museo","1","Arte","MUSEO NAZIONALE DI ARTE MEDIEVALE E MODERNA","Via San Lorentino 8","","Arezzo","AR","1"
"4695","1713119","4764652","","","052007EP001","3","Monumento o complesso monumentale","1","Arte","ROCCA A TENTENNANO","Località Rocca d'Orcia ","","Castiglione d'Orcia","SI","1"
"4696","1733068","4816470","43.464712  ","11.880787  ","051002ST004","3","Monumento o complesso monumentale","1","Arte","CAPPELLA BACCI BASILICA DI SAN FRANCESCO","Piazza San Francesco ","","Arezzo","AR","1"
"4698","1733014","4816939","43.468952  ","11.880328  ","051002ST003","1","Museo","1","Arte","MUSEO DI CASA VASARI","Via XX settembre 55","","Arezzo","AR","1"
"4702","1706567","4833178","43.622784  ","11.559888  ","051009ST001","3","Monumento o complesso monumentale","1","Arte","BASILICA DI SAN SALVATORE A SOFFENA","Via Soffena ","","Castelfranco di Sopra","AR","1"
"4703","1681848","4849483","43.775921  ","11.259270  ","048017ST017","1","Museo","1","Arte","MUSEO DELL'OPIFICIO DELLE PIETRE DURE","Via degli Alfani 78","","Firenze","FI","1"
"4705","1681996","4849570","43.776666  ","11.261142  ","048017ST014","1","Museo","2","Archeologia","MUSEO ARCHEOLOGICO NAZIONALE E MUSEO EGIZIO DI FIRENZE","Piazza S.S. Annunziata 9","","Firenze","FI","1"
"4706","1688835","4798683","43.317151  ","11.328364  ","052032ST009","1","Museo","2","Archeologia","MUSEO ARCHEOLOGICO DI SIENA","Piazza Duomo 2","","Siena","SI","1"
"4708","1765748","4844935","","","051035ST001","1","Museo","2","Archeologia","ANTIQUARIUM NAZIONALE DI SESTINO","Via Marche 12","","Sestino","AR","1"
"4711","1669760","4780086","43.154357  ","11.087577  ","052010NW001","1","Museo","8","Specializzato","MOSTRA DOCUMENTARIA PERMANENTE DELLA MINIERA DELLE CETINE","Via P. Mascagni 2","","Chiusdino","SI","1"
"4712","1687852","4698650","42.417330  ","11.282829  ","053018MS001","1","Museo","2","Archeologia","ANTIQUARIUM CITTA' DI COSA","Via delle Ginestre ","Ansedonia","Orbetello","GR","1"
"4717","1666130","4850929","43.792626  ","11.064550  ","100002ST001","2","Siti archeologici","2","Archeologia","ZONA ARCHELOGICA DI COMEANA - TOMBA ETRUSCA DI MONTEFORTINI","Via di Montefortini ","Comeana","Carmignano","PO","1"
"4718","1672987","4736377","","","053011MS001","2","Siti archeologici","2","Archeologia","AREA ARCHEOLOGICA DI ROSELLE","Via dei Ruderi ","Roselle","Grosseto","GR","1"
"4719","1660981","4747084","42.859269  ","10.970149  ","053006MS001","2","Siti archeologici","2","Archeologia","AREA ARCHEOLOGICA DI VETULONIA","Via Case di Siena ","Vetulonia","Castiglione della Pescaia","GR","1"
"4720","1740720","4768593","43.031763  ","11.954368  ","052011ST002","2","Siti archeologici","2","Archeologia","TOMBA DELLA SCIMMIA","Località Poggio Renzo ","","Chiusi","SI","1"
"4721","1740720","4768593","43.031763  ","11.954368  ","052011ST003","2","Siti archeologici","2","Archeologia","NECROPOLI DI POGGIO RENZO","Località Poggio Renzo ","","Chiusi","SI","1"
"4723","1733068","4816470","43.464712  ","11.880787  ","052032XX017","2","Siti archeologici","2","Archeologia","SOTTOSAGRATO DI SAN FRANCESCO","Piazza San Francesco ","","Arezzo","AR","1"
"4736","1688972","4799150","43.321318  ","11.330211  ","052032XX005","3","Monumento o complesso monumentale","1","Arte","CHIESA DI SANTA MARIA DELLE NEVI","Via Montanini 3a","","Siena","SI","1"
"4737","1680682","4799469","43.326224  ","11.228153  ","052016ST001","3","Monumento o complesso monumentale","1","Arte","EREMO DI SAN LEONARDO AL LAGO","Località Santa Colomba ","S. Leonardo al Lago","Monteriggioni","SI","1"
"4738","1689759","4798516","43.315420  ","11.339686  ","052032XX006","3","Monumento o complesso monumentale","1","Arte","CHIESA DI SANTA MARIA DEGLI ANGELI ""IL SANTUCCIO""","Via Roma 69b","","Siena","SI","1"
"4740","1621634","4855849","43.845553  ","10.512838  ","046017ST002","1","Museo","1","Arte","MUSEO NAZIONALE DI VILLA GUINIGI","Via della Quarquonia ","","Lucca","LU","1"
"4741","1620539","4855605","43.843542  ","10.499172  ","046017ST003","1","Museo","1","Arte","MUSEO NAZIONALE DI PALAZZO MANSI","Via Galli Tassi 43","","Lucca","LU","1"
"4742","1613418","4841203","43.715033  ","10.407567  ","050026ST001","1","Museo","1","Arte","MUSEO NAZIONALE DI SAN MATTEO","Piazza San Matteo in Soarta 1","","Pisa","PI","1"
"4745","1608950","4741300","42.816390  ","10.332370  ","049014ST001","1","Museo","3","Storia","MUSEO NAZIONALE DELLE RESIDENZE NAPOLEONICHE PALAZZINA DEI MULINI","Piazzale Napoleone ","","Portoferraio","LI","1"
"4746","1605257","4737692","42.784418  ","10.286539  ","049014ST002","1","Museo","3","Storia","MUSEO NAZIONALE DELLE RESIDENZE NAPOLEONICHE VILLA SAN MARTINO","Località San Martino ","","Portoferraio","LI","1"
"4747","1705957","4845373","43.732642  ","11.556988  ","048035NW001","1","Museo","1","Arte","MUSEO D'ARTE SACRA ABBAZIA DI VALLOMBROSA","Via San Benedetto 2","Vallombrosa","Reggello","FI","1"
"4764","1720455","4810842","43.417919  ","11.722785  ","051016XX4128","1","Museo","1","Arte","PINACOTECA D'ARTE CONTEMPORANEA","Via Martiri di Civitella 17","","Civitella in Val di Chiana","AR","1"
"4765","1648661","4837616","43.676535  ","10.843858  ","050032PV001","1","Museo","1","Arte","MUSEO DI SANTA CHIARA","Via Roma 15","","San Miniato","PI","1"
"4786","1733263","4816524","43.465142  ","11.883219  ","051002PV002","1","Museo","1","Arte","CASA MUSEO IVAN BRUSCHI","Corso Italia 14","","Arezzo","AR","1"
"6065","1701874","4779221","43.138689  ","11.481895  ","052003EP001","1","Museo","1","Arte","MUSEO D'ARTE SACRA DELLA VAL D'ARBIA","Via Soccini 18","","Buonconvento","SI","1"
"6061","1701941","4779145","43.137988  ","11.482691  ","052003EP002","1","Museo","6","Etnografia e antropologia","MUSEO ETNOGRAFICO DELLA MEZZADRIA SENESE","Piazzale Garibaldi ","","Buonconvento","SI","1"
"6067","1707769","4790289","43.236659  ","11.558463  ","052002MA001","1","Museo","1","Arte","MUSEO CIVICO ARCHEOLOGICO E D'ARTE SACRA PALAZZO CORBOLI","Corso Matteotti 122","","Asciano","SI","1"
"6066","1707908","4790153","43.235394  ","11.560129  ","052002EP001","1","Museo","1","Arte","MUSEO CASSIOLI. PITTURA SENESE DELL'OTTOCENTO","Via Fiume 8","","Asciano","SI","1"
"4797","1637028","4872583","43.993457  ","10.708577  ","047012EP002","1","Museo","8","Specializzato","MUSEO DELLA CARTA","Piazza della Croce 1","Pietrabuona","Pescia","PT","1"
"6064","1710637","4781124","43.153421  ","11.590259  ","052029EP001","1","Museo","6","Etnografia e antropologia","MUSEO DEL TARTUFO E CENTRO DI DOCUMENTAZIONE","Piazza Gramsci 1","","San Giovanni d'Asso","SI","1"
"6062","1712392","4792851","43.258421  ","11.616325  ","052026EP001","1","Museo","6","Etnografia e antropologia","MUSEO DELL'ANTICA GRANCIA E DELL'OLIO","Via dell'Antica Grancia 3","Serre di Rapolano","Rapolano Terme","SI","1"
"4801","1649967","4783790","43.191871  ","10.845277  ","050011ST001","2","Siti archeologici","2","Archeologia","AQUAE POPULONIAE. AREA ARCHEOLOGICA DELLE TERME DEL BAGNO","Strada tra Sasso Pisano e Leccia ","Sasso Pisano","Castelnuovo Val di Cecina","PI","1"
"4806","1683363","4850576","43.785380  ","11.278456  ","048017ST024","3","Monumento o complesso monumentale","1","Arte","PARCO DI VILLA IL VENTAGLIO","Via G. Aldini 10/12","","Firenze","FI","1"
"4807","1654075","4865795","43.929003  ","10.919087  ","047014ST002","3","Monumento o complesso monumentale","1","Arte","FORTEZZA DI S. BARBARA","Piazza della Resistenza ","","Pistoia","PT","1"
"4808","1653925","4865990","43.930793  ","10.917273  ","047014ST003","3","Monumento o complesso monumentale","1","Arte","EX CHIESA DEL TAU","Corso Silvano Fedi 70","","Pistoia","PT","1"
"4809","1654271","4866124","43.931927  ","10.921619  ","047014ST001","1","Museo","1","Arte","ORATORIO DI SAN DESIDERIO","Via Laudesi ","","Pistoia","PT","1"
"4810","1645737","4859199","43.871344  ","10.813467  ","047009ST001","1","Museo","3","Storia","MUSEO NAZIONALE DI CASA GIUSTI","Via Vincenzo Martini 18","","Monsummano Terme","PT","1"
"4812","1678039","4847997","43.763478  ","11.211483  ","048017ST026","3","Monumento o complesso monumentale","1","Arte","VILLA PANDOLFINI CARDUCCI","Via Guardiavia 18","Soffiano","Firenze","FI","1"
"6104","1689203","4798895","43.318968  ","11.332973  ","052032NW008","1","Museo","1","Arte","COLLEZIONE DELLE TAVOLETTE DI BICCHERNA E MOSTRA DOCUMENTARIA","Via Banchi di Sotto 52","","Siena","SI","1"
"4815","1680760","4849076","43.772528  ","11.245627  ","048017ST005","1","Museo","1","Arte","CENACOLO DI OGNISSANTI DI DOMENICO GHIRLANDAIO","Borgo Ognissanti 42","","Firenze","FI","1"
"4817","1683995","4849066","43.771644  ","11.285785  ","048017ST006","1","Museo","1","Arte","CENACOLO DI ANDREA DEL SARTO A SAN SALVI","Via di San Salvi 16","","Firenze","FI","1"
"4818","1681197","4849632","43.777424  ","11.251245  ","048017ST004","1","Museo","1","Arte","CENACOLO DI FULIGNO","Via Faenza 42","","Firenze","FI","1"
"4819","1681609","4849796","43.778799  ","11.256411  ","048017ST007","1","Museo","1","Arte","CENACOLO DI SANT'APOLLONIA","Via XXVII Aprile 1","","Firenze","FI","1"
"4820","1681702","4849612","43.777122  ","11.257502  ","048017ST008","1","Museo","1","Arte","CHIOSTRO DELLO SCALZO","Via Cavour 69","","Firenze","FI","1"
"4824","1679584","4853927","43.816453  ","11.232652  ","048017XX3873","1","Museo","2","Archeologia","L'ANTIQUARIUM DI VILLA CORSINI A CASTELLO       ","Via della Petraia 38","Castello","Firenze","FI","1"
"4825","1679584","4853927","43.816453  ","11.232652  ","048017ST023","3","Monumento o complesso monumentale","1","Arte","VILLA MEDICEA DELLA PETRAIA","Via della Petraia 40","Castello","Firenze","FI","1"
"4829","1682223","4849403","43.775107  ","11.263908  ","048017EP001","3","Monumento o complesso monumentale","1","Arte","CENACOLO DEL PERUGINO NELLA CHIESA DI SANTA MARIA MADDALENA DEI PAZZI","Via Della Colonna 9","","Firenze","FI","1"
"4834","1681091","4848253","43.765039  ","11.249464  ","048017ST011","1","Museo","1","Arte","GALLERIA PALATINA E APPARTAMENTI REALI","Piazza Pitti ","","Firenze","FI","1"
"4835","1681091","4848253","43.765039  ","11.249464  ","048017ST002","1","Museo","1","Arte","GALLERIA D'ARTE MODERNA","Piazza Pitti ","Palazzo Pitti","Firenze","FI","1"
"4836","1681000","4848271","43.765228  ","11.248340  ","048017ST020","1","Museo","8","Specializzato","GALLERIA DEL COSTUME DI PALAZZO PITTI","Piazza Pitti 1","Palazzo Pitti","Firenze","FI","1"
"4837","1681000","4848271","43.765228  ","11.248340  ","048017ST013","3","Monumento o complesso monumentale","1","Arte","GIARDINO DI BOBOLI","Piazza Pitti 1","","Firenze","FI","1"
"4838","1681000","4848271","43.765228  ","11.248340  ","048017ST015","1","Museo","1","Arte","MUSEO DEGLI ARGENTI","Piazza Pitti 1","","Firenze","FI","1"
"4839","1681000","4848271","43.765228  ","11.248340  ","048017ST021","1","Museo","1","Arte","MUSEO DELLE PORCELLANE","Piazza Pitti 1","","Firenze","FI","1"
"4840","1681000","4848271","43.765228  ","11.248340  ","048017ST019","1","Museo","1","Arte","MUSEO DELLE CARROZZE","Piazza Pitti 1","","Firenze","FI","1"
"4841","1681819","4849727","43.778126  ","11.258999  ","048017ST022","1","Museo","1","Arte","MUSEO DI SAN MARCO","Piazza San Marco 3","","Firenze","FI","1"
"4842","1681756","4849058","43.772125  ","11.257989  ","048017ST016","1","Museo","1","Arte","MUSEO NAZIONALE DEL BARGELLO","Via del Proconsolo 4","","Firenze","FI","1"
"4843","1681744","4849532","43.776385  ","11.258002  ","048017ST001","1","Museo","1","Arte","COMPLESSO MUNUMENTALE DI ORSANMICHELE","Via Arte della Lana 1","","Firenze","FI","1"
"4856","1699485","4809767","43.414121  ","11.463607  ","052013NW001","3","Monumento o complesso monumentale","3","Storia","COLLEZIONE RICASOLI","Castello di Brolio  ","La Madonna a Brolio","Gaiole in Chianti","SI","1"
"4865","1631840","4768723","43.059635  ","10.618707  ","049002EC001","1","Museo","1","Arte","MUSEO D'ARTE SACRA DI CAMPIGLIA MARITTIMA","Via Libertà 15","","Campiglia Marittima","LI","1"
"4867","1631305","4788036","43.233562  ","10.616714  ","049006PV001","1","Museo","1","Arte","CENTRO PER LA CONSERVAZIONE DELL'ARREDO SACRO E DEL COSTUME RELIGIOSO","Via Bolgherese ","","Castagneto Carducci","LI","1"
"4868","1605499","4821101","43.535254  ","10.305372  ","049009EP001","1","Museo","1","Arte","MUSEO CIVICO GIOVANNI FATTORI","Via San Jacopo in Acquaviva 65","Villa Mimbelli","Livorno","LI","1"
"4869","1606557","4821910","43.542393  ","10.318620  ","049009EP004","1","Museo","3","Storia","MUSEO MASCAGNI","Via Calzabigi 54","","Livorno","LI","1"
"4871","1718295","4772817","43.076536  ","11.681079  ","052021EP001","1","Museo","2","Archeologia","MUSEO ARCHEOLOGICO E DELLA CITTA' DI PIENZA","Piazza San Carlo ","","Pienza","SI","1"
"4876","1605257","4737692","42.784418  ","10.286539  ","049014PV002","1","Museo","1","Arte","OPEN-AIR MUSEUM ITALO BOLANO","Località San Martino ","","Portoferraio","LI","1"
"4878","1718148","4772814","43.076550  ","11.679270  ","052021EC001","1","Museo","1","Arte","MUSEO DIOCESANO D'ARTE SACRA DI PIENZA","Corso Il Rossellino 30","","Pienza","SI","1"
"6087","1624765","4753332","42.922287  ","10.528418  ","049012MA001","1","Museo","1","Arte","MUSEO DI ARTE SACRA 'ANDREA GUARDI' - CITTA' DI PIOMBINO","Via del Coro 18","","Piombino","LI","1"
"4882","1614249","4806773","43.405002  ","10.410631  ","049017EP002","6","Centro espositivo","1","Arte","CENTRO PER L'ARTE DIEGO MARTELLI","Piazza della Vittoria ","Castiglioncello","Rosignano Marittimo","LI","1"
"4884","1636641","4771005","","","049020EP001","1","Museo","1","Arte","MUSEO ARTISTICO DELLA BAMBOLA - COLLEZIONE MARIA MICAELLI","Via Magenta 14","","Suvereto","LI","1"
"4887","1605858","4822764","43.550178  ","10.310140  ","049009EC001","1","Museo","1","Arte","MUSEO DI ARTE SACRA DI SANTA GIULIA","Via di Santa Giulia ","","Livorno","LI","1"
"4888","1707565","4822170","43.523495  ","11.568030  ","051026EC001","1","Museo","1","Arte","MUSEO DI ARTE SACRA DELLA COLLEGIATA DI S. LORENZO","Via Isidoro Del Lungo 4","","Montevarchi","AR","1"
"4891","1674624","4814444","43.462397  ","11.158272  ","052022EC002","3","Monumento o complesso monumentale","1","Arte","COLLEZIONE DI EX-VOTO DEL SANTUARIO DI SANTA MARIA A ROMITUZZO","Via Burresi 17","","Poggibonsi","SI","1"
"4893","1609158","4816464","43.492988  ","10.349711  ","049009NW001","1","Museo","1","Arte","MUSEO EX VOTO MARINARI DEL SANTUARIO DI MONTENERO","Piazza di Montenero 10","Montenero","Livorno","LI","1"
"6081","1616755","4741399","42.816128  ","10.427833  ","049015PV001","1","Museo","4","Storia e scienze naturali","PARCO MINERARIO DELL'ISOLA D'ELBA - MUSEO DEI MINERALI E DELL'ARTE MINERARIA","Via Magenta 26","","Rio Marina","LI","1"
"4896","1595701","4738710","42.794838  ","10.169901  ","049010EP002","3","Monumento o complesso monumentale","1","Arte","FORTEZZA PISANA","Piazza della Fortezza ","","Marciana","LI","1"
"4897","1595496","4738100","42.789375  ","10.167300  ","049010EP001","1","Museo","2","Archeologia","MUSEO CIVICO ARCHEOLOGICO DI MARCIANA","Via del Pretorio 66","","Marciana","LI","1"
"4898","1595709","4738088","42.789240  ","10.169891  ","049010EP003","1","Museo","6","Etnografia e antropologia","MUSEO DELL'ARTE CONTADINA DI MARCIANA","Via della Marina ","","Marciana","LI","1"
"6070","1611271","4891554","44.168561  ","10.391457  ","046035EP001","5","Centri scientifici-culturali","4","Storia e scienze naturali","ORTO BOTANICO ""PANIA DI CORFINO""","Località Pié Magnano di Corfino ","","Villa Collemandina","LU","1"
"4904","1603811","4872328","","","046030EP001","1","Museo","3","Storia","MUSEO STORICO DELLA RESISTENZA","Via Coletti 22","Sant`Anna di Stazzema","Stazzema","LU","1"
"4905","1621197","4855630","43.843658  ","10.507361  ","046017PV001","1","Museo","3","Storia","MUSEO STORICO DELLA LIBERAZIONE (1943-1945)","Via Sant'Andrea 43","","Lucca","LU","1"
"4906","1613381","4868965","","","046022PV002","1","Museo","3","Storia","MUSEO PUCCINIANO DI CELLE DI PESCAGLIA","Via Meletori 27","Celle di Puccini","Pescaglia","LU","1"
"6073","1673587","4814972","43.467393  ","11.145627  ","052022NW001","1","Museo","4","Storia e scienze naturali","MUSEO DI PALEONTOLOGIA DI POGGIBONSI","Via F.C. Marmocchi 2","","Poggibonsi","SI","1"
"4913","1618968","4881144","","","046003PV001","1","Museo","1","Arte","MUSEO DI CASA CORDATI","Via di Mezzo 17","","Barga","LU","1"
"4915","1618968","4881144","","","046003EP002","1","Museo","7","Territoriale","MUSEO CIVICO DEL TERRITORIO ""ANTONIO MORDINI""","Piazza dell`Arringo del Duomo ","","Barga","LU","1"
"4918","1618968","4881144","","","046003EP001","1","Museo","3","Storia","CASA MUSEO PASCOLI","Via Caprona 4","Castelvecchio Pascoli","Barga","LU","1"
"6072","1726037","4753126","42.897156  ","11.768099  ","052024MA001","3","Monumento o complesso monumentale","1","Arte","FORTEZZA E MUSEO DI RADICOFANI","Via della Fortezza ","","Radicofani","SI","1"
"4927","1753834","4829031","43.570896  ","12.142988  ","051034PV001","1","Museo","8","Specializzato","ABOCA MUSEUM ERBE E SALUTE NEI SECOLI","Via Niccolò Aggiunti 75","","Sansepolcro","AR","1"
"4928","1622248","4880218","","","046011EP001","1","Museo","6","Etnografia e antropologia","MUSEO DELLA FIGURINA DI GESSO E DELL'EMIGRAZIONE GUGLIELMO LERA","Via del Mangano 17","","Coreglia Antelminelli","LU","1"
"4930","1753705","4829045","43.571064  ","12.141407  ","051034MA001","1","Museo","3","Storia","MUSEO E BIBLIOTECA DELLA RESISTENZA","Via Matteotti 10","","Sansepolcro","AR","1"
"4931","1631316","4873214","44.000180  ","10.637522  ","046002NW002","1","Museo","1","Arte","MUSEO PARROCCHIALE D'ARTE SACRA DI BAGNI DI LUCCA","Piazza Santa Maria ","Benabbio","Bagni di Lucca","LU","1"
"4933","1598649","4860853","43.894023  ","10.227894  ","046005EP001","1","Museo","2","Archeologia","CIVICO MUSEO ARCHEOLOGICO DI CAMAIORE","Via Vittorio Emanuele 181","","Camaiore","LU","1"
"4934","1604739","4865739","43.937167  ","10.304664  ","046005EC001","1","Museo","1","Arte","MUSEO D'ARTE SACRA DI CAMAIORE","Via IV Novembre 71","","Camaiore","LU","1"
"4942","1718006","4853141","43.799063  ","11.709599  ","051036EP001","1","Museo","1","Arte","RACCOLTA COMUNALE D'ARTE CONTEMPORANEA DI STIA","Via Vittorio Veneto ","Palagio Fiorentino","Stia","AR","1"
"4949","1718626","4780050","43.141494  ","11.687985  ","052036EP001","1","Museo","6","Etnografia e antropologia","MUSEO DELLA TERRACOTTA","Via Valgelata 10","Petroio","Trequanda","SI","1"
"4950","1592792","4869634","43.973832  ","10.156523  ","046013PV002","1","Museo","1","Arte","CASA MUSEO UGO GUIDI","Via Matteo Civitali 33","Vittoria Apuana","Forte dei Marmi","LU","1"
"4959","1605032","4854119","43.832534  ","10.306024  ","046033PV001","1","Museo","3","Storia","VILLA MUSEO GIACOMO PUCCINI","Viale Giacomo Puccini 266","Torre del Lago Puccini","Viareggio","LU","1"
"4960","1605270","4871981","43.993277  ","10.312513  ","046030XX3845","1","Museo","7","Territoriale","MUSEO DELLA PIETRA PIEGATA","Via IV Novembre 70","Levignani","Stazzema","LU","1"
"4961","1697515","4843460","","","052032XX016","2","Siti archeologici","2","Archeologia","AREA ARCHEOLOGICA CASTELLUCCIO","Località Lo Stecco ","","Rignano sull'Arno","FI","1"
"4963","1731483","4790882","43.235096  ","11.850423  ","051017EC001","1","Museo","2","Archeologia","ANTIQUARIUM DI FARNETA","Località Farneta 3","","Cortona","AR","1"
"4965","1741431","4794148","43.261346  ","11.974207  ","051017ST001","2","Siti archeologici","2","Archeologia","AREA ARCHEOLOGICA DI CORTONA","Via Ipogeo ","Il Sodo - Camucia","Cortona","AR","1"
"4971","1665773","4863916","","","100003NW001","1","Museo","3","Storia","MUSEO STORICO MISERICORDIE D'ITALIA","Piazza Leonardo da Vinci 32","","Montemurlo","PO","1"
"4977","1634722","4852719","43.815118  ","10.674809  ","046001EP001","1","Museo","2","Archeologia","ESPOSIZIONE ARCHEOLOGICA DELLA STORIA DELL'ANTICO OSPEDALE DI ALTOPASCIO SULLA VIA FRANCIGENA","Piazza Ospitalieri 3","","Altopascio","LU","1"
"4978","1667909","4865493","43.923266  ","11.091225  ","100005EC001","1","Museo","1","Arte","MUSEO DELLA PIEVE DI SAN PIETRO APOSTOLO","Via Vecchia Cantagallo 4","Figline di Prato","Prato","PO","1"
"4979","1658825","4791855","43.262645  ","10.956543  ","050011EP001","1","Museo","6","Etnografia e antropologia","MUSEO DELLA CIVILTA' CONTADINA DI MONTECASTELLI","Via Borgo ","Montecastelli Pisano","Castelnuovo Val di Cecina","PI","1"
"4981","1630418","4840771","43.708362  ","10.618416  ","050001EP001","1","Museo","2","Archeologia","MUSEO DELLA STORIA ANTICA DEL COMUNE DI BIENTINA VITTORIO BERNARDI","Via Marco Polo ","","Bientina","PI","1"
"4982","1630542","4840949","43.709936  ","10.619997  ","050001EP002","1","Museo","1","Arte","MUSEO DI ARTE SACRA DELLA PIEVE DI S.MARIA ASSUNTA","Borgo della Pieve 2","","Bientina","PI","1"
"4984","1648321","4839254","43.691349  ","10.840099  ","050032EP004","1","Museo","8","Specializzato","MUSEO DELLA CIVILTA' DELLA SCRITTURA","Via De Amicis 34","San Miniato Basso","San Miniato","PI","1"
"4986","1624827","4837253","43.677653  ","10.548228  ","050008EP001","1","Museo","8","Specializzato","MUSEO DELLE ARTI E DEI MESTIERI DEL LEGNO","Via Curtatone 60","","Cascina","PI","1"
"4988","1733060","4816476","43.464768  ","11.880690  ","051002EP001","1","Museo","1","Arte","GALLERIA COMUNALE D'ARTE CONTEMPORANEA DI AREZZO","Piazza San Francesco 4","","Arezzo","AR","5"
"4996","1656821","4842562","43.719368  ","10.946465  ","048014EC001","1","Museo","1","Arte","MUSEO DELLA COLLEGIATA DI SANT'ANDREA","Piazza Prepositura 3","","Empoli","FI","1"
"4997","1742249","4795727","43.275282  ","11.984971  ","051017MA001","1","Museo","2","Archeologia","MAEC - MUSEO DELL'ACCADEMIA ETRUSCA E DELLA CITTA' DI CORTONA","Piazza Signorelli 9","","Cortona","AR","1"
"4999","1628601","4824917","43.565986  ","10.592099  ","050017EP001","3","Monumento o complesso monumentale","3","Storia","CASTELLO E MUSEO CIVICO F.BALDINUCCI","Piazza del Castello 1","","Lari","PI","1"
"5000","1641875","4805835","43.391839  ","10.751426  ","050019EP001","1","Museo","8","Specializzato","MUSEO DELLE MINIERE DI MONTECATINI VAL DI CECINA","Piazza Garibaldi 1","","Montecatini Val di Cecina","PI","2"
"5005","1593905","4894691","44.199234  ","10.174846  ","045004EP001","1","Museo","7","Territoriale","MUSEO DEL TERRITORIO DELL'ALTA VALLE DELL'AULELLA","Via IV Novembre 105","","Casola in Lunigiana","MS","1"
"5006","1612472","4842033","43.722648  ","10.396000  ","050026EC002","3","Monumento o complesso monumentale","1","Arte","CATTEDRALE DI SANTA MARIA","Piazza Duomo ","","Pisa","PI","1"
"5007","1612548","4841999","43.722331  ","10.396943  ","050026EC006","1","Museo","1","Arte","MUSEO DELL'OPERA DEL DUOMO DI PISA","Piazza Arcivescovado 6","","Pisa","PI","1"
"5008","1612472","4842033","43.722648  ","10.396000  ","050026EC004","1","Museo","1","Arte","MUSEO DELLE SINOPIE","Piazza del Duomo 3","","Pisa","PI","1"
"5011","1581459","4887230","","","045008EP001","1","Museo","3","Storia","MUSEO AUDIOVISIVO DELLA RESISTENZA DELLE PROVINCE DI MASSA CARRARA E LA SPEZIA","Via delle Prate 12","Le Prate","Fosdinovo","MS","1"
"5012","1612472","4842033","43.722648  ","10.396000  ","050026EC003","3","Monumento o complesso monumentale","1","Arte","TORRE CAMPANARIA PENDENTE","Piazza Duomo ","","Pisa","PI","1"
"5016","1684302","4853045","43.807364  ","11.290965  ","048015EC003","1","Museo","1","Arte","MUSEO DELLA CAPPELLA DI SAN JACOPO NEL SEMINARIO","Via San Francesco ","","Fiesole","FI","1"
"5019","1684168","4853841","43.814559  ","11.289577  ","048015ST001","3","Monumento o complesso monumentale","1","Arte","CONVENTINO DELLA MADDALENA","Via Faentina ","Caldine","Fiesole","FI","1"
"5021","1612364","4841237","43.715505  ","10.394500  ","050026EP001","3","Monumento o complesso monumentale","1","Arte","TORRE GUELFA DELLA CITTADELLA VECCHIA","Lungarno Simonelli ","","Pisa","PI","1"
"5022","1612798","4841564","43.718378  ","10.399955  ","050026US003","1","Museo","2","Archeologia","COLLEZIONI EGITTOLOGICHE DELL'UNIVERSITA DEGLI STUDI DI PISA","Via San Frediano 12","","Pisa","PI","1"
"5024","1613752","4840423","43.707963  ","10.411543  ","050026US004","1","Museo","4","Storia e scienze naturali","MUSEO ANATOMICO DELLA FACOLTA' DI VETERINARIA","Viale delle Piagge 2","","Pisa","PI","1"
"5030","1591647","4877025","","","045010PV001","1","Museo","6","Etnografia e antropologia","MUSEO ETNOLOGICO DELLE APUANE 'LUIGI BONACOSCIA'","Via Uliveti 83","Oliveti","Massa","MS","1"
"5032","1591647","4877025","","","045010EP001","5","Centri scientifici-culturali","4","Storia e scienze naturali","ORTO BOTANICO PIETRO PELLEGRINI","Strada Provinciale Massa - San Carlo Terme - Antona - Arni km 18","Pian della Fioba","Massa","MS","1"
"5043","1650598","4807228","43.402681  ","10.859452  ","050039EP001","1","Museo","8","Specializzato","ECOMUSEO DELL'ALABASTRO. SEZIONE DI VOLTERRA","Via dei Sarti ","","Volterra","PI","1"
"5044","1593948","4873421","44.007769  ","10.171599  ","045011EP001","3","Monumento o complesso monumentale","1","Arte","CASTELLO AGHINOLFI","Via Palatina ","","Montignoso","MS","1"
"5050","1571097","4907341","","","045012EP001","1","Museo","3","Storia","MUSEO EMIGRAZIONE 'GENTE DI TOSCANA'","Castello di Lusuolo ","Lusuolo","Mulazzo","MS","1"
"5051","1650605","4807236","43.402749  ","10.859539  ","050039MS001","1","Museo","1","Arte","PINACOTECA E MUSEO CIVICO DI PALAZZO MINUCCI SOLAINI","Via dei Sarti 1","","Volterra","PI","1"
"5052","1650606","4807136","43.401849  ","10.859528  ","050039EP002","3","Monumento o complesso monumentale","1","Arte","PALAZZO DEI PRIORI DI VOLTERRA","Piazza dei Priori 1 ","","Volterra","PI","1"
"5053","1650530","4807163","43.402103  ","10.858592  ","050039EC001","1","Museo","1","Arte","MUSEO DIOCESANO DI ARTE SACRA","Via Roma 13","","Volterra","PI","1"
"5056","1637544","4887783","44.130152  ","10.718956  ","047004EP001","4","Ecomusei","6","Etnografia e antropologia","ECOMUSEO DELLA MONTAGNA PISTOIESE, ITINERARIO DELLA VITA QUOTIDIANA, MUSEO DELLA GENTE DELL'APPENNINO PISTOIESE","Via degli Scoiattoli 1","Rivoreta","Cutigliano","PT","1"
"5068","1638834","4859977","43.879673  ","10.727797  ","047003EC001","3","Monumento o complesso monumentale","1","Arte","COLLEZIONE PARROCCHIALE DEL SANTUARIO DEL SS. CROCEFISSO","Corso Indipendenza 56","Borgo a Buggiano","Buggiano","PT","1"
"5070","1638962","4858892","43.869891  ","10.729104  ","047003NW001","1","Museo","8","Specializzato","MUSEO STORICO VIGILI DEL FUOCO","Via Livornese 28","Santa Maria - Borgo a Buggiano","Buggiano","PT","1"
"5074","1654970","4736653","42.766638  ","10.893741  ","053006NW001","5","Centri scientifici-culturali","4","Storia e scienze naturali","MUSEO MULTIMEDIALE DELLA CASA ROSSA XIMENES","Località Casa Rossa ","","Castiglione della Pescaia","GR","1"
"5075","1640906","4870350","43.972634  ","10.756321  ","047007NW001","1","Museo","6","Etnografia e antropologia","MUSEO DELLA CULTURA CONTADINA ","Piazza della Chiesa 5","Casore del Monte","Marliana","PT","1"
"5078","1653960","4866321","","","047014NW002","1","Museo","8","Specializzato","MUSEO DEL RICAMO A PALAZZO ROSPIGLIOSI","Via Ripa del Sale 3","","Pistoia","PT","1"
"5079","1653510","4866369","43.934290  ","10.912214  ","047014EP001","1","Museo","1","Arte","CASA-STUDIO FERNANDO MELANI","Corso Gramsci 159","","Pistoia","PT","1"
"5080","1653925","4865990","43.930793  ","10.917273  ","047014MA001","1","Museo","1","Arte","MUSEO MARINO MARINI DI PISTOIA","Corso Silvano Fedi 30","","Pistoia","PT","1"
"5081","1653647","4866532","43.935725  ","10.913975  ","047014EP002","1","Museo","1","Arte","PALAZZO FABRONI ARTI VISIVE CONTEMPORANEE","Via Sant'Andrea ","","Pistoia","PT","1"
"5082","1653873","4866305","43.933632  ","10.916717  ","047014EP004","1","Museo","8","Specializzato","CENTRO DI DOCUMENTAZIONE GIOVANNI MICHELUCCI","Piazza del Duomo 1","","Pistoia","PT","1"
"5085","1655608","4754249","42.924873  ","10.906408  ","053010NW003","5","Centri scientifici-culturali","2","Archeologia","CENTRO DI DOCUMENTAZIONE CASTEL DI PIETRA ""DAVIDE MANNI""","Via Terranova 31","","Gavorrano","GR","1"
"5086","1654002","4866435","43.934775  ","10.918363  ","047014NW001","1","Museo","6","Etnografia e antropologia","AREA MUSEALE DEL CEPPO","Piazza Giovanni XXIII 1","","Pistoia","PT","1"
"5087","1655563","4754298","","","053010NW001","3","Monumento o complesso monumentale","1","Arte","MOSTRA PERMANENTE DI ARREDI E PARAMENTI SACRI DI SAN BIAGIO","Località Caldana ","","Gavorrano","GR","1"
"5088","1660111","4860648","43.881402  ","10.992688  ","047017EC001","1","Museo","1","Arte","RACCOLTA D'ARTE SACRA DELLA CHIESA DEI SANTI FILIPPO E GIACOMO","Via Brana 270","Ferruccia","Quarrata","PT","1"
"5090","1633608","4861154","43.891232  ","10.663071  ","047012NW005","1","Museo","8","Specializzato","MUSEO DEL BONSAI","Via Lucchese 159","Ponte all'Abate","Pescia","PT","1"
"5091","1635761","4862708","43.904825  ","10.690260  ","047012NW001","1","Museo","8","Specializzato","MUSEO DEL CORPO MUSICALE GIALDINO GIALDINI","Piazza San Francesco 10","","Pescia","PT","1"
"5092","1640491","4855702","43.840894  ","10.747293  ","047016EC001","3","Monumento o complesso monumentale","1","Arte","MUSEO DEL SANTUARIO DELLA MADONNA DEL BUON CONSIGLIO","Piazza del Santuario 17","","Ponte Buggianese","PT","1"
"5101","1649362","4864647","43.919642  ","10.860084  ","047014EP008","1","Museo","6","Etnografia e antropologia","MUSEO DEL CARBONAIO DI BAGGIO","Via di Baggio 36a","Baggio","Pistoia","PT","1"
"5106","1672972","4736624","42.762525  ","11.113626  ","053011NW002","3","Monumento o complesso monumentale","1","Arte","CASSERO MEDICEO","Via Aurelio Saffi ","","Grosseto","GR","1"
"5107","1670384","4749940","42.882941  ","11.086041  ","053011EP003","1","Museo","3","Storia","MUSEO DELLA STORIA LOCALE 'ILDEBRANDO IMBERCIADORI'","Via Ugurgeri 3","Montepescali","Grosseto","GR","1"
"5109","1649868","4877819","44.038069  ","10.870098  ","047019MS001","4","Ecomusei","2","Archeologia","ECOMUSEO DELLA MONTAGNA PISTOIESE. CENTRO NATURALISTICO ARCHEOLOGICO DELL'APPENNINO PISTOIESE","Viale L. Orlando 100","Campo Tizzoro","San Marcello Pistoiese","PT","1"
"5110","1662269","4875265","44.012457  ","11.023990  ","047018EP002","4","Ecomusei","2","Archeologia","ECOMUSEO DELLA MONTAGNA PISTOIESE. ITINERARIO DELLA PIETRA. INSEDIAMENTO ALTOMEDIOEVALE DELL'ACQUERINO","Località Acquerino ","Acquerino","Sambuca Pistoiese","PT","1"
"5111","1633161","4889398","","","047001MS001","4","Ecomusei","4","Storia e scienze naturali","ECOMUSEO DELLA MONTAGNA PISTOIESE. ORTO BOTANICO FORESTALE ABETONE E POLO DIDATTICO NATURALISTICO DI FONTANA VACCAIA","Località Alta Val Sestaione ","Abetone","Abetone","PT","2"
"5113","1645887","4879775","44.056475  ","10.820977  ","047019EP002","4","Ecomusei","87","Punto Informativo, spazio mostre","ECOMUSEO DELLA MONTAGNA PISTOIESE. PUNTO INFORMATIVO CENTRALE DI PALAZZO ACHILLI","Piazzetta Achilli 7","Gavinana","San Marcello Pistoiese","PT","1"
"5115","1653960","4866321","","","047014EP005","4","Ecomusei","88","Luogo di Lavoro","ECOMUSEO MONTAGNA PISTOIESE - COMPARTO PRODUTTIVO DEL GHIACCIO DELLA MADONNINA","Strada Regionale 66 ","Le Piastre","Pistoia","PT","1"
"5116","1653093","4880321","44.059918  ","10.911049  ","047014EP007","4","Ecomusei","8","Specializzato","ECOMUSEO MONTAGNA PISTOIESE - POLO DIDATTICO DEL GHIACCIO","Via della Noce ","Pracchia","Pistoia","PT","1"
"5117","1640525","4878407","44.045208  ","10.753706  ","047015EC001","4","Ecomusei","1","Arte","ECOMUSEO MONTAGNA PISTOIESE. MUSEO DIOCESANO D'ARTE SACRA E POLO DIDATTICO DELLA RELIGIOSITA' POPOLARE DI POPIGLIO","Piazza della Chiesa 1","Popiglio","Piteglio","PT","2"
"5119","1690296","4724056","42.645337  ","11.320964  ","053013EP001","1","Museo","2","Archeologia","CENTRO DI DOCUMENTAZIONE ARCHEOLOGICA DI MAGLIANO IN TOSCANA","Via Garibaldi 12","","Magliano in Toscana","GR","1"
"5120","1706480","4718086","","","053014EP002","1","Museo","2","Archeologia","MUSEO ARCHEOLOGICO DI SATURNIA","Via Italia ","Saturnia","Manciano","GR","1"
"5121","1706481","4718084","42.587439  ","11.516041  ","053014EP001","1","Museo","2","Archeologia","MUSEO DI PREISTORIA E PROTOSTORIA DELLA VALLE DEL FIUME FIORA","Via Corsini 5","","Manciano","GR","1"
"5122","1701687","4849387","43.769923  ","11.505534  ","048032EC001","3","Monumento o complesso monumentale","1","Arte","RACCOLTA D'ARTE SACRA DI SAN CLEMENTE A PELAGO","Piazza Cavalcanti 1","","Pelago","FI","1"
"5137","1621354","4855787","43.845046  ","10.509348  ","046017XX003","6","Centro espositivo","1","Arte","Lu.C.C.A - LUCCA CENTER OF CONTEMPORARY ART","Via della Fratta 36","","Lucca","LU","1"
"5139","1623671","4851354","43.804760  ","10.537134  ","046007EP002","1","Museo","6","Etnografia e antropologia","MOSTRA PERMANENTE ATTREZZI DI VITA CONTADINA","Via Sottomonte ","San Leonardo in Treponzio","Capannori","LU","1"
"5142","1681581","4848705","43.768986  ","11.255693  ","048017ST009","1","Museo","1","Arte","GALLERIA DEGLI UFFIZI E CORRIDOIO VASARIANO","Piazzale degli Uffizi 6","","Firenze","FI","1"
"5143","1680885","4848964","43.771488  ","11.247139  ","048017NW021","1","Museo","5","Scienza e tecnica","MUSEO DELLA SANITA' - EX-OSPEDALE DI SAN GIOVANNI DI DIO","Borgo Ognissanti 20","","Firenze","FI","1"
"5144","1681447","4848662","43.768637  ","11.254021  ","048017EC003","1","Museo","1","Arte","MUSEO DIOCESANO DI SANTO STEFANO AL PONTE","Piazza di Santo Stefano 5","","Firenze","FI","1"
"5146","1686995","4848736","43.767921  ","11.322917  ","048017NW018","3","Monumento o complesso monumentale","1","Arte","PARCO D'ARTE ENZO PAZZAGLI","Via Sant'Andrea a Rovezzano 5","","Firenze","FI","1"
"5149","1703990","4838941","43.675336  ","11.530154  ","048035EC001","1","Museo","1","Arte","MUSEO MASACCIO D'ARTE SACRA","Via Casaromolo 2a","Cascia","Reggello","FI","1"
"5157","1722407","4729204","","","053026EP001","1","Museo","2","Archeologia","MUSEO DEL MEDIOEVO E DEL RINASCIMENTO-FORTEZZA ORSINI","Piazza Cairoli 3","","Sorano","GR","1"
"5163","1668562","4860643","43.879481  ","11.097816  ","100005EP001","3","Monumento o complesso monumentale","1","Arte","CASTELLO DELL'IMPERATORE","Piazza Santa Maria delle Carceri ","","Prato","PO","1"
"5166","1702741","4770510","","","052014NW001","1","Museo","8","Specializzato","MUSEO STORICO DEL VETRO E DELLA BOTTIGLIA 'J. F. MARIANI'","Castello di Poggio alle Mura ","","Montalcino","SI","1"
"5169","1690534","4816530","43.477285  ","11.355512  ","052023XX4123","2","Siti archeologici","2","Archeologia","PARCO ARCHEOLOGICO DI POGGIO LA CROCE","Località Poggio la Croce ","","Radda in Chianti","SI","1"
"5178","1689723","4798481","43.315113  ","11.339232  ","052032PV001","1","Museo","3","Storia","MUSEO DELLA CONTRADA DI VALDIMONTONE","Via di Val di Montone 6","","Siena","SI","1"
"5179","1722930","4844883","","","051031EP003","4","Ecomusei","6","Etnografia e antropologia","BOTTEGA DEL BIGONAIO E MOSTRA PERMANENTE SULLA GUERRA E LA RESISTENZA","Località Moggiona ","","Poppi","AR","2"
"5180","1666231","4806343","43.391414  ","11.052117  ","052012XX5141","2","Siti archeologici","2","Archeologia","PARCO ARCHEOLOGICO DI DOMETAIA","Località Buliciano-Dometaia ","Dometaia","Colle Val d'Elsa","SI","1"
"5181","1665269","4814788","43.467621  ","11.042801  ","052028EC001","1","Museo","1","Arte","MUSEO D'ARTE SACRA DI SAN GIMIGNANO","Piazza Pecori 1","","San Gimignano","SI","1"
"5184","1681638","4849215","43.773562  ","11.256578  ","048017PV004","3","Monumento o complesso monumentale","1","Arte","CAMPANILE DI GIOTTO","Piazza del Duomo ","","Firenze","FI","1"
"5185","1681638","4849215","43.773562  ","11.256578  ","048017PV019","3","Monumento o complesso monumentale","1","Arte","CATTEDRALE DI SANTA MARIA DEL FIORE","Piazza Duomo ","","Firenze","FI","1"
"5187","1681697","4849068","43.772223  ","11.257262  ","048017XX5187","3","Monumento o complesso monumentale","1","Arte","CHIESA DI SAN BENEDETTO","Piazza San Benedetto ","","Firenze","FI","1"
"5188","1681638","4849215","43.773562  ","11.256578  ","048017PV014","3","Monumento o complesso monumentale","1","Arte","CRIPTA DI SANTA REPARATA","Piazza Duomo ","","Firenze","FI","1"
"5189","1681638","4849215","43.773562  ","11.256578  ","048017PV013","3","Monumento o complesso monumentale","1","Arte","CUPOLA DEL BRUNELLESCHI","Piazza Duomo ","","Firenze","FI","1"
"5190","1681602","4849209","43.773518  ","11.256124  ","048017PV010","1","Museo","1","Arte","MUSEO DELL'OPERA DI SANTA MARIA DEL FIORE","Piazza del Duomo 9","","Firenze","FI","1"
"5193","1682059","4848661","43.768473  ","11.261615  ","048017EC004","3","Monumento o complesso monumentale","1","Arte","COMPLESSO MONUMENTALE DI SANTA CROCE","Piazza Santa Croce 16","","Firenze","FI","1"
"5197","1681307","4848965","43.771396  ","11.252388  ","048017XX002","6","Centro espositivo","1","Arte","CCCS - CENTRO DI CULTURA CONTEMPORANEA STROZZINA","Piazza Strozzi 1","","Firenze","FI","1"
"5198","1681307","4848965","43.771396  ","11.252388  ","048017XX001","6","Centro espositivo","1","Arte","PALAZZO STROZZI","Piazza Strozzi 1","","Firenze","FI","1"
"5199","1680891","4848198","43.764600  ","11.246962  ","048017NW015","1","Museo","1","Arte","MUSEO PARROCCHIALE D'ARTE SACRA ORATORIO DI SAN SEBASTIANO DE' BINI","Via Romana 10","","Firenze","FI","1"
"5204","1681522","4848026","43.762895  ","11.254730  ","048017EP002","1","Museo","1","Arte","COLLEZIONI DEL NOVECENTO ALBERTO DELLA RAGIONE","Via San Leonardo ","Forte Belvedere","Firenze","FI","1"
"5206","1681025","4848893","43.770819  ","11.248858  ","048017NW008","3","Monumento o complesso monumentale","1","Arte","GALLERIA 'CORSINI'","Via del Parione 11","Palazzo Corsini","Firenze","FI","1"
"5207","1680554","4847744","43.760594  ","11.242623  ","048017NW012","1","Museo","1","Arte","GIPSOTECA ISTITUTO STATALE D'ARTE","Piazzale di Porta Romana 9","","Firenze","FI","1"
"5209","1676889","4849188","43.774473  ","11.197600  ","048017US007","5","Centri scientifici-culturali","5","Scienza e tecnica","IL GIARDINO DI ARCHIMEDE - UN MUSEO PER LA MATEMATICA","Via San Bartolo a Cintoia 19a","","Firenze","FI","1"
"5211","1672603","4849739","43.780442  ","11.144564  ","048041EC001","3","Monumento o complesso monumentale","1","Arte","ABBAZIA DI SAN SALVATORE A SETTIMO","Via San Lorenzo 15","Badia a Settimo","Scandicci","FI","1"
"5226","1679947","4853859","43.815754  ","11.237138  ","048017XX008","3","Monumento o complesso monumentale","1","Arte","VILLA LA QUIETE","Via di Boldrone 2","","Firenze","FI","1"
"5228","1684302","4853045","43.807364  ","11.290965  ","048015EC002","1","Museo","1","Arte","MUSEO MISSIONARIO FRANCESCANO","Via S. Francesco 13","","Fiesole","FI","1"
"5232","1658168","4825471","43.565287  ","10.958178  ","048020EP001","1","Museo","2","Archeologia","MOSTRA PERMANENTE SUL VETRO PREINDUSTRIALE","Via Volterrana 31","","Gambassi Terme","FI","1"
"5233","1689096","4798834","","","052032EC002","1","Museo","1","Arte","MUSEO AURELIO CASTELLI","Via dell'Osservanza 7","Basilica dell'Osservanza","Siena","SI","1"
"5235","1668899","4848425","43.769470  ","11.098148  ","048024EC001","1","Museo","1","Arte","MUSEO VICARIALE DI SAN MARTINO A GANGALANDI","Via Leon Battista Alberti 37","","Lastra a Signa","FI","1"
"5236","1663013","4844178","43.732573  ","11.023783  ","048028NW002","1","Museo","1","Arte","MUSEO CONTEMPORANEO DI MONTELUPO FIORENTINO ","Via Bartolomeo Sinibaldi 45","","Montelupo Fiorentino","FI","1"
"5237","1689129","4798481","43.315264  ","11.331913  ","052032PV016","1","Museo","3","Storia","MUSEO DELLA CONTRADA CAPITANA DELL'ONDA","Via Fontanella 1","","Siena","SI","1"
"5242","1654158","4768265","43.051308  ","10.892511  ","053015PV001","1","Museo","8","Specializzato","MUSEO SANTA CECILIA DI ORGANI MECCANICI ANTICHI","Corso Diaz 28","","Massa Marittima","GR","1"
"5243","1680864","4694869","42.384961  ","11.196766  ","053016EP001","3","Monumento o complesso monumentale","1","Arte","FORTE STELLA","Località Forte Stella ","Porto Ercole","Monte Argentario","GR","1"
"5245","1674287","4700594","42.437983  ","11.118661  ","053016EP002","1","Museo","2","Archeologia","FORTEZZA SPAGNOLA. MOSTRA PERMANENTE 'MEMORIE SOMMERSE'","Piazza del Governatore ","Porto Santo Stefano","Monte Argentario","GR","1"
"5246","1672752","4832716","43.627241  ","11.140961  ","048038NW001","1","Museo","1","Arte","QUADRERIA E STUDIOLO DELLA PIEVE DI S.PANCRAZIO","Via San Pancrazio 41","","San Casciano Val di Pesa","FI","1"
"5247","1665835","4773822","43.098858  ","11.037453  ","053017XX3867","3","Monumento o complesso monumentale","1","Arte","IL GIARDINO DEI SUONI ","Località Boccheggiano  ","","Montieri","GR","1"
"5248","1675491","4847420","43.758898  ","11.179671  ","048041XX3808","6","Centro espositivo","1","Arte","CASTELLO DELL'ACCIAIOLO","Via Pantin ","","Scandicci","FI","1"
"5251","1677510","4855923","43.834919  ","11.207549  ","048043EP001","1","Museo","6","Etnografia e antropologia","COLLEZIONE ETNOGRAFICA BRUNO CARMAGNINI","Via Veronelli 2","","Sesto Fiorentino","FI","1"
"5252","1676194","4856323","43.838832  ","11.191324  ","048043PV001","1","Museo","8","Specializzato","MUSEO RICHARD GINORI DELLA MANIFATTURA DI DOCCIA","Viale Pratese 31","","Sesto Fiorentino","FI","1"
"5254","1694677","4846979","43.750140  ","11.417639  ","052032XX015","3","Monumento o complesso monumentale","1","Arte","CHIESA DI SANTA MARIA A CASTIGLIONCHIO","Via  di Castiglionchio 1","Rosano","Rignano sull'Arno","FI","1"
"5255","1705180","4740075","42.785635  ","11.508155  ","053020EC001","1","Museo","1","Arte","RACCOLTA D'ARTE DELL'ORATORIO DEL S.CROCIFISSO","Via del S.S. Crocifisso ","","Roccalbegna","GR","1"
"5258","1676744","4764127","43.009153  ","11.168344  ","053021EP001","1","Museo","6","Etnografia e antropologia","MUSEO DELLA VITE E DEL VINO DI ROCCASTRADA","Piazza dell'Orologio 9","","Roccastrada","GR","1"
"5259","1651093","4752428","42.909386  ","10.850620  ","053024XX3868","5","Centri scientifici-culturali","2","Archeologia","CENTRO DI DOCUMENTAZIONE ""GLI ETRUSCHI A SCARLINO"" ","Piazzetta Guelfi ","","Scarlino","GR","1"
"5263","1688857","4799130","43.321171  ","11.328781  ","052032PV004","1","Museo","1","Arte","MUSEO DELLA CONTRADA DEL DRAGO","Piazza Matteotti 19","","Siena","SI","1"
"5264","1689335","4798903","43.319008  ","11.334603  ","052032PV005","1","Museo","3","Storia","MUSEO DELLA CONTRADA DEL LEOCORNO","Piazzetta V. Grassi 6","","Siena","SI","1"
"5265","1689019","4798603","43.316387  ","11.330597  ","052032PV014","1","Museo","3","Storia","MUSEO DELLA CONTRADA DELL'AQUILA","Via Casato di Sotto 86","","Siena","SI","1"
"5266","1688817","4798249","43.313254  ","11.327989  ","052032PV018","1","Museo","3","Storia","MUSEO DELLA CONTRADA DELLA CHIOCCIOLA","Via S. Marco 35","","Siena","SI","1"
"5269","1688835","4798683","43.317151  ","11.328364  ","052032NW003","1","Museo","1","Arte","PALAZZO DELLE PAPESSE CENTRO ARTE CONTEMPORANEA","Piazza Duomo 2","","Siena","SI","1"
"5271","1689077","4799345","43.323051  ","11.331568  ","052032PV015","1","Museo","8","Specializzato","MUSEO DELLA CONTRADA DELLA LUPA","Via Vallerozzi 63","","Siena","SI","1"
"5273","1688749","4798687","43.317213  ","11.327299  ","052032PV012","1","Museo","8","Specializzato","MUSEO DELLA CONTRADA DELLA SELVA","Piazzetta della Selva 5","","Siena","SI","1"
"5274","1688941","4798424","43.314801  ","11.329574  ","052032PV011","1","Museo","8","Specializzato","MUSEO DELLA CONTRADA DELLA TARTUCA","Via Tommaso Pendola 21","","Siena","SI","1"
"5275","1683216","4786552","43.209394  ","11.255089  ","052034EP001","1","Museo","6","Etnografia e antropologia","MUSEO ETNOGRAFICO DEL BOSCO E DELLA MEZZADRIA","Località Borgolozzi ","Orgia","Sovicille","SI","2"
"5276","1689316","4798679","43.317000  ","11.334286  ","052032PV006","1","Museo","3","Storia","MUSEO DELLA CONTRADA DELLA TORRE","Via Salicotto 76","","Siena","SI","1"
"5277","1689186","4798974","43.319681  ","11.332789  ","052032PV017","1","Museo","3","Storia","MUSEO DELLA CONTRADA PRIORA DELLA CIVETTA","Piazzetta Del Castellare 1","","Siena","SI","1"
"5278","1688731","4799582","43.325267  ","11.327383  ","052032PV003","1","Museo","3","Storia","MUSEO DELLA CONTRADA SOVRANA DELL'ISTRICE","Via Camollia 87","","Siena","SI","1"
"5279","1689654","4798776","43.317785  ","11.338483  ","052032PV007","1","Museo","8","Specializzato","MUSEO DELLA NOBILE CONTRADA DEL NICCHIO","Via dei Pispini 68","","Siena","SI","1"
"5280","1688861","4798973","43.319756  ","11.328786  ","052032PV009","1","Museo","8","Specializzato","MUSEO ED ORATORIO DELLA NOBILE CONTRADA DELL'OCA","Via S. Caterina 66","","Siena","SI","1"
"5281","1689184","4799357","43.323133  ","11.332889  ","052032PV008","1","Museo","8","Specializzato","MUSEO NOBILE CONTRADA DEL BRUCO","Via del Comune 44","","Siena","SI","1"
"5283","1689096","4798834","","","052032NW001","3","Monumento o complesso monumentale","1","Arte","SANTUARIO E CASA DI S.CATERINA","- Casta S. Antonio 6","","Siena","SI","1"
"5286","1612563","4841327","43.716282  ","10.396981  ","050026ST002","1","Museo","1","Arte","MUSEO NAZIONALE DI PALAZZO REALE","Lungarno Pacinotti 46","","Pisa","PI","1"
"5297","1681310","4849350","43.774855  ","11.252548  ","048017ST003","1","Museo","1","Arte","MUSEO DELLE CAPPELLE MEDICEE","Piazza Madonna Aldobrandini ","","Firenze","FI","1"
"5298","1681379","4849259","43.774024  ","11.253376  ","048017ST028","1","Museo","1","Arte","MUSEO DI CASA MARTELLI","Via Zannetti 8","","Firenze","FI","1"
"5306","1740230","4766871","","","052011EC001","1","Museo","1","Arte","MUSEO DELLA CATTEDRALE E LABIRINTO DI PORSENNA","Piazza Duomo  7","","Chiusi","SI","1"
"5307","1721711","4840026","","","051027EP001","4","Ecomusei","7","Territoriale","ECOMUSEO DELLA CASTAGNA","Via del Molino ","Raggiolo","Ortignano Raggiolo","AR","3"
"5311","1668303","4864726","43.916275  ","11.095879  ","100005XX4164","1","Museo","3","Storia","CASA LEONETTO TINTORI","Via di Vainella 1/g","Figline","Prato","PO","1"
"5314","1680973","4848247","43.765020  ","11.247997  ","048017NW017","1","Museo","3","Storia","CASA GUIDI","Piazza San Felice 8","","Firenze","FI","1"
"5316","1707290","4822455","43.526130  ","11.564745  ","051026MA001","6","Centro espositivo","1","Arte","CENTRO ESPOSITIVO ERNESTO GALEFFI","Via Ammiraglio Burzagli 43","","Montevarchi","AR","1"
"5318","1670398","4870651","","","100006EC001","1","Museo","1","Arte","MUSEO DELLA BADIA DI S. SALVATORE","Piazza Agnolo Firenzuola 1","","Vaiano","PO","1"
"5324","1717816","4846741","","","051010MA001","4","Ecomusei","6","Etnografia e antropologia","ECOMUSEO DEL CARBONAIO","- - -","La Chiesa, Cetica","Castel San Niccolò","AR","1"
"5325","1635571","4862808","","","047012EP004","1","Museo","1","Arte","GIPSOTECA 'LIBERO ANDREOTTI'","Piazza del Palagio 6","","Pescia","PT","1"
"5326","1635588","4862686","43.904657  ","10.688099  ","047012EP003","1","Museo","1","Arte","MUSEO CIVICO DI PESCIA","Piazza Santo Stefano 1","","Pescia","PT","1"
"5328","1726498","4845798","43.730480  ","11.811935  ","051004EP002","4","Ecomusei","6","Etnografia e antropologia","RACCOLTA RURALE CASA ROSSI","Via Nazionale 32","Soci","Bibbiena","AR","1"
"5329","1725236","4831402","43.601400  ","11.790276  ","051038EP001","4","Ecomusei","8","Specializzato","CASA NATALE DI GUIDO MONACO ","Località La Castellaccia ","","Talla","AR","1"
"5334","1658262","4842932","43.722395  ","10.964455  ","048014NW001","1","Museo","8","Specializzato","CASA DEL PONTORMO","Via Pontorme 97","","Empoli","FI","1"
"5339","1731726","4837516","43.654392  ","11.873202  ","051014EP001","4","Ecomusei","6","Etnografia e antropologia","ECOMUSEO DEL CONTRABBANDO E DELLA POLVERE DA SPARO","Località San Vincenzo 1","","Chitignano","AR","1"
"5341","1731457","4853028","43.793960  ","11.876547  ","051031EP002","1","Museo","4","Storia e scienze naturali","MUSEO FORESTALE 'CARLO SIEMONI'","Via Nazionale 14/b","","Poppi","AR","1"
"5344","1722880","4844779","43.722407  ","11.766645  ","051031EP001","3","Monumento o complesso monumentale","3","Storia","CASTELLO DEI CONTI GUIDI - mostre permanenti","Piazza Repubblica 1","","Poppi","AR","1"
"5345","1731708","4828754","43.575599  ","11.869233  ","051037MA001","4","Ecomusei","2","Archeologia","CENTRO DI DOCUMENTAZIONE DELLA CULTURA ARCHEOLOGICA ","Via Arcipretura 43","","Subbiano","AR","1"
"5346","1730602","4827367","","","051006EP001","4","Ecomusei","8","Specializzato","CENTRO DI DOCUMENTAZIONE E POLO DIDATTICO DELL'ACQUA","Località La Nussa -","La Nussa","Capolona","AR","1"
"5347","1688840","4799225","43.322029  ","11.328610  ","052032XX5335","1","Museo","3","Storia","STANZE DELLA MEMORIA","Via Malavolti 9","","Siena","SI","1"
"5349","1751729","4819340","43.484478  ","12.112475  ","051024EP001","1","Museo","1","Arte","MUSEO MADONNA DEL PARTO","Via della Reglia 1","","Monterchi","AR","1"
"5352","1734969","4850497","43.770096  ","11.919035  ","051015XX4011","4","Ecomusei","7","Territoriale","ECOMUSEO DELLA VALLESANTA","Località Corezzo ","","Chiusi della Verna","AR","1"
"5353","1717812","4853426","43.801684  ","11.707305  ","051036MA001","1","Museo","7","Territoriale","MUSEO DEL BOSCO E DELLA MONTAGNA - COLLEZIONE ORNITOLOGICA ""C. BENI""","Vicolo dei Berignoli 5","","Stia","AR","1"
"5354","1717973","4855499","43.820277  ","11.710149  ","051036PV001","1","Museo","6","Etnografia e antropologia","MUSEO DEL CASTELLO DI PORCIANO","Castello di Porciano ","Porciano","Stia","AR","1"
"5357","1655563","4754298","","","053010NW002","1","Museo","8","Specializzato","MUSEO MINERARIO DEL PARCO MINERARIO NATURALISTICO DI GAVORRANO","Piazzale Livello +240 Pozzo Impero ","","Gavorrano","GR","2"
"5358","1689769","4798474","43.315040  ","11.339801  ","052032EP002","1","Museo","1","Arte","MUSEO DELLA SOCIETA' DI ESECUTORI DI PIE DISPOSIZIONI","Via Roma 71","","Siena","SI","1"
"5359","1604915","4821120","43.535514  ","10.298150  ","049009EP003","5","Centri scientifici-culturali","4","Storia e scienze naturali","ACQUARIO DI LIVORNO","Piazzale Mascagni 1","","Livorno","LI","1"
"5368","1688872","4798659","43.316926  ","11.328813  ","052032EP006","5","Centri scientifici-culturali","1","Arte","BAMBIMUS - MUSEO D'ARTE PER BAMBINI","Piazza Duomo 1","","Siena","SI","1"
"5381","1594198","4874495","44.017409  ","10.174911  ","045011XX5379","1","Museo","3","Storia","CENTRO DI DOCUMENTAZIONE SULLA LINEA GOTICA","Via Fondaccio  ","","Montignoso","MS","1"
"5383","1570346","4914207","44.377558  ","9.8826931  ","052032XX013","1","Museo","1","Arte","MUSEO DIOCESANO DI ARTE SACRA DI PONTREMOLI","Piazza del Duomo 1","","Pontremoli","MS","1"
"5388","1671971","4852417","43.804678  ","11.137574  ","048006NW001","1","Museo","1","Arte","MUSEO ANTONIO MANZI","Piazza della Repubblica ","Villa Rucellai","Campi Bisenzio","FI","1"
"5390","1687070","4828118","","","048021XX5387","1","Museo","6","Etnografia e antropologia","MUSEO DEL VINO","Piazza Tirinnanzi 12","","Greve in Chianti","FI","1"
"5392","1672881","4851336","43.794739  ","11.148531  ","048006EC001","1","Museo","1","Arte","MUSEO DI ARTE SACRA DI SAN DONNINO","Piazza Costituzione 1","San Donnino","Campi Bisenzio","FI","1"
"6093","1668255","4848583","43.771041  ","11.090205  ","048024EP001","3","Monumento o complesso monumentale","8","Specializzato","MUSEO DI VILLA CARUSO DI BELLOSGUARDO","Via di Bellosguardo 54","","Lastra a Signa","FI","1"
"5402","1737010","4802873","43.341209  ","11.923567  ","051012EP001","1","Museo","1","Arte","PINACOTECA COMUNALE DI CASTIGLION FIORENTINO","Via del Cassero ","","Castiglion Fiorentino","AR","1"
"5403","1736993","4802929","43.341714  ","11.923384  ","051012EP002","1","Museo","2","Archeologia","ESPOSIZIONE ARCHEOLOGICA E PERCORSO ARCHEOLOGICO SOTTERRANEO DI CASTIGLION FIORENTINO","Via del Tribunale 8","","Castiglion Fiorentino","AR","1"
"5408","1737134","4802879","43.341221  ","11.925094  ","051012NW001","1","Museo","1","Arte","MUSEO DELLA PIEVE DI SAN GIULIANO","Piazza della Collegiata  ","","Castiglion Fiorentino","AR","1"
"5411","1681507","4849310","43.774448  ","11.254979  ","048017NW005","1","Museo","5","Scienza e tecnica","COLLEZIONI DELL'OSSERVATORIO XIMENIANO","Borgo San Lorenzo 26","","Firenze","FI","1"
"5415","1696577","4829202","43.589720  ","11.434739  ","048016EC001","1","Museo","6","Etnografia e antropologia","MUSEO DELLA CIVILTA' CONTADINA DI GAVILLE","Località Gaville ","","Figline Valdarno","FI","1"
"5417","1751715","4819495","43.485874  ","12.112371  ","051024EP002","1","Museo","8","Specializzato","MUSEO DELLE BILANCE ""COLLEZIONE VELIO ORTOLANI""","Via XX settembre ","","Monterchi","AR","1"
"5419","1681537","4848789","43.769759  ","11.255178  ","048017XX4355","1","Museo","8","Specializzato","GUCCI MUSEO","Piazza della Signoria 10","","Firenze","FI","1"
"5420","1652090","4795694","","","050027PV001","1","Museo","5","Scienza e tecnica","MUSEO DELLA GEOTERMIA E DELL'ENEL DI LARDERELLO","Piazza Paolina ","Larderello","Pomarance","PI","1"
"5424","1624877","4861843","43.898965  ","10.554577  ","046007PV003","3","Monumento o complesso monumentale","1","Arte","PARCO DI VILLA REALE","Via Fraga Alta 2","Marlia","Capannori","LU","1"
"6068","1629147","4860538","43.886481  ","10.607405  ","046007PV001","3","Monumento o complesso monumentale","1","Arte","VILLA DI CAMIGLIANO GIA' TORRIGIANI","Via del Gomberaio 3","Camigliano Santa Gemma","Capannori","LU","1"
"5427","1718135","4772807","43.076489  ","11.679111  ","052021PV001","1","Museo","1","Arte","MUSEO DEL PALAZZO PICCOLOMINI","Piazza Pio II 2","","Pienza","SI","1"
"5429","1678241","4855702","43.832747  ","11.216553  ","048043PV002","2","Siti archeologici","2","Archeologia","TOMBA ETRUSCA 'LA MONTAGNOLA'","Viale Fratelli Rosselli 95","Quinto Alto","Sesto Fiorentino","FI","1"
"5436","1729012","4811989","43.425666  ","11.828838  ","051002PV001","1","Museo","8","Specializzato","MUSEO AZIENDALE DELLA 'GORI & ZUCCHI' (UNO A ERRE)","Via Strada E 5","San Zeno","Arezzo","AR","1"
"5437","1711764","4817191","43.477532  ","11.618007  ","051005NW001","1","Museo","2","Archeologia","MUSEO PALEONTOLOGICO DI BUCINE","Via XXV Aprile 14","","Bucine","AR","1"
"5440","1711416","4817103","43.476835  ","11.613671  ","051005XX5440","1","Museo","3","Storia","MUSEO DELLA MEMORIA DI SAN PANCRAZIO ","Piazza Martiri 29 Giugno 1944  ","San Pancrazio","Bucine","AR","1"
"5441","1709250","4883764","44.077018  ","11.612903  ","048026XX3874","1","Museo","1","Arte","MUSEO DI ARTE CONTEMPORANEA ""ARTISTI PER DINO CAMPANA"" ","Via Castelnaudary 7","","Marradi","FI","1"
"5442","1677161","4838988","43.682639  ","11.197623  ","048038XX4130","3","Monumento o complesso monumentale","3","Storia","CASA MUSEO DI NICCOLO' MACHIAVELLI","Via Scopeti 64/157","Sant'Andrea in Percussina","San Casciano Val di Pesa","FI","1"
"5446","1702452","4751330","42.887621  ","11.478877  ","053007PV001","1","Museo","6","Etnografia e antropologia","CASA MUSEO DI MONTICELLO AMIATA","Via Grande ","Monticello Amiata","Cinigiano","GR","1"
"5447","1701115","4747024","42.849231  ","11.460984  ","053001NW001","1","Museo","4","Storia e scienze naturali","CENTRO VISITE DEL PARCO FAUNISTICO","Piazza del Castello ","","Arcidosso","GR","1"
"5448","1705528","4753742","42.908497  ","11.517389  ","053004XX3810","1","Museo","1","Arte","GIARDINO D'ARTE ""ARTE A PARTE""","Località Montegiovi ","","Castel del Piano","GR","1"
"5449","1705246","4740102","","","053020EP001","1","Museo","6","Etnografia e antropologia","MUSEO DELLA FOCARAZZA DI SANTA CATERINA DI ROCCALBEGNA","Via Roma 15","Santa Caterina","Roccalbegna","GR","1"
"5450","1707353","4752176","","","053004NW001","1","Museo","8","Specializzato","MUSEO DELLA VITE E DEL VINO DI MONTENERO D'ORCIA","Piazza Centrale 2","Montenero d'Orcia","Castel del Piano","GR","1"
"5452","1711355","4745353","42.831436  ","11.585546  ","053022EP001","1","Museo","8","Specializzato","MUSEO DELLE MINIERE DI MERCURIO DEL MONTE AMIATA","Piazza Garibaldi 25","","Santa Fiora","GR","1"
"5453","1707335","4752120","42.893416  ","11.538914  ","053004NW002","1","Museo","1","Arte","RACCOLTA D'ARTE DI PALAZZO NERUCCI","Piazza Colonna 1","","Castel del Piano","GR","1"
"5454","1716296","4738246","42.766128  ","11.643214  ","053005XX3811","1","Museo","8","Specializzato","SENTIERO ED EX-GALLERIE MINERARIE DEL CORNACCHINO","Località Cornacchino ","","Castell'Azzara","GR","1"
"5455","1701115","4747024","42.849231  ","11.460984  ","053001EP001","1","Museo","3","Storia","SEZIONE ESPOSITIVA DEL CENTRO STUDI DAVID LAZZARETTI","Piazza del Castello ","","Arcidosso","GR","1"
"5457","1581459","4887230","","","045008XX4412","1","Museo","3","Storia","CASTELLO MALASPINA DI FOSDINOVO","Via Papiriana 2","","Fosdinovo","MS","1"
"5458","1681504","4848834","43.770167  ","11.254788  ","048017ST018","1","Museo","1","Arte","MUSEO DELLA CASA FIORENTINA DI PALAZZO DAVANZATI","Via Porta Rossa 13","","Firenze","FI","1"
"5459","1720905","4801301","43.331968  ","11.724484  ","051025EP001","1","Museo","1","Arte","MUSEO COMUNALE DEL CASSERO","Piazza Gamurrini 25","","Monte San Savino","AR","1"
"5460","1708627","4756027","42.928209  ","11.556169  ","053025EP001","1","Museo","1","Arte","CENTRO DI DOCUMENTAZIONE PERMANENTE SUI BENI CULTURALI DEL TERRITORIO","Via Trento e Trieste 17","","Seggiano","GR","1"
"5461","1638081","4868156","43.953421  ","10.720552  ","047012NW003","1","Museo","6","Etnografia e antropologia","MUSEO STORICO ETNOGRAFICO DEL MINATORE E CAVATORE","Via 17 Agosto 1944 10/a","Vellano","Pescia","PT","1"
"5467","1702803","4770137","43.056718  ","11.489992  ","052014EP001","3","Monumento o complesso monumentale","1","Arte","FORTEZZA DI MONTALCINO","Piazzale della Fortezza ","","Montalcino","SI","1"
"5469","1716955","4726167","42.657283  ","11.646641  ","053026XX5464","1","Museo","2","Archeologia","MUSEO DI SAN MAMILIANO","Piazza del Pretorio ","Sovana","Sorano","GR","1"
"5470","1733285","4816757","43.467227  ","11.883589  ","051002EC001","1","Museo","1","Arte","MUDAS MUSEUM - MUSEO DIOCESANO DI AREZZO","Piazzetta dietro il Duomo 1","","Arezzo","AR","1"
"5472","1684726","4858903","43.859960  ","11.298254  ","048046EP001","3","Monumento o complesso monumentale","1","Arte","PARCO MEDICEO DI PRATOLINO VILLA DEMIDOFF","Via Fiorentina 276","Pratolino","Vaglia","FI","1"
"5473","1631600","4768722","","","049002PV002","1","Museo","4","Storia e scienze naturali","MUSEO DEL MINERALE DI CAMPIGLIA MARITTIMA","Vicolo delle Donne 6","","Campiglia Marittima","LI","1"
"5475","1681457","4849404","43.775306  ","11.254400  ","048017ST025","3","Monumento o complesso monumentale","1","Arte","BIBLIOTECA MEDICEA LAURENZIANA - AMBIENTI MONUMENTALI","Piazza San Lorenzo 9","","Firenze","FI","1"
"6083","1716733","4779917","43.140847  ","11.664681  ","052036PV001","1","Museo","1","Arte","MUSEO D'ARTE SACRA DELLA CONFRATERNITA DELLA TRINITA' E DI S. BERNARDINO","Via Gaetano Milanesi 1","Castelmuzio","Trequanda","SI","1"
"5483","1608565","4895434","44.203882  ","10.358419  ","046027EP001","1","Museo","4","Storia e scienze naturali","MUSEO NATURALISTICO DEL CENTRO VISITATORI DELL'ORECCHIELLA","Località Orecchiella 1","Corfino","San Romano in Garfagnana","LU","1"
"5487","1710301","4795291","43.280954  ","11.591524  ","052026XX4186","2","Siti archeologici","2","Archeologia","COMPLESSO ARCHEOLOGICO CAMPO MURI ","Località Terme di San Giovanni ","","Rapolano Terme","SI","1"
"5488","1628534","4823255","43.551034  ","10.590868  ","050017NW001","1","Museo","6","Etnografia e antropologia","MUSEO DELLE ATTIVITA' AGRICOLE","Via della Cella 4/b","Usigliano","Lari","PI","1"
"5490","1649030","4837949","43.679458  ","10.848527  ","050032EP003","1","Museo","2","Archeologia","MUSEO ARCHEOLOGICO DI SAN MINIATO","Via Ser Ridolfo 3","","San Miniato","PI","1"
"5491","1649064","4837985","43.679773  ","10.848957  ","050032EC001","3","Monumento o complesso monumentale","3","Storia","VIA ANGELICA","Piazza del Popolo ","","San Miniato","PI","1"
"6103","1730188","4771173","43.058234  ","11.826311  ","052009EP001","1","Museo","2","Archeologia","MUSEO CIVICO ARCHEOLOGICO DELLE ACQUE","Via Dante 80","","Chianciano Terme","SI","1"
"5495","1649257","4837922","43.679173  ","10.851339  ","050032NW001","1","Museo","4","Storia e scienze naturali","RACCOLTE PALEONTOLOGICHE DEL SEMINARIO VESCOVILE","Piazza della Repubblica 10","","San Miniato","PI","1"
"5988","1668303","4860851","43.881410  ","11.094654  ","100005EC002","1","Museo","1","Arte","MUSEO DI PITTURA MURALE","Piazza S. Domenico 8","","Prato","PO","1"
"5496","1619173","4827415","43.590030  ","10.475947  ","049008NW001","1","Museo","1","Arte","PINACOTECA COMUNALE CARLO SERVOLINI","Via Umberto I 63-65","Palazzo Romboli","Collesalvetti","LI","1"
"5498","1629734","4792064","","","0490012XX023","2","Siti archeologici","2","Archeologia","AREA ARCHEOLOGICA DEL PALAZZINO","Località Il Palazzino ","","Bibbona","LI","1"
"5499","1651583","4781035","43.166751  ","10.864397  ","050011XX4143","1","Museo","2","Archeologia","ANTIQUARIUM DI SASSO PISANO","Via dei Lagoni ","Sasso Pisano","Castelnuovo Val di Cecina","PI","1"
"5500","1608905","4741246","42.815907  ","10.331802  ","049014PV001","1","Museo","3","Storia","MUSEO NAPOLEONICO DELLA MISERICORDIA","Salita Napoleone ","","Portoferraio","LI","1"
"5502","1629734","4792064","","","0490012XX022","2","Siti archeologici","2","Archeologia","AREA ARCHEOLOGICA DEL FOSSO DELLE TANE","Via Vicinale delle Tane ","","Bibbona","LI","1"
"6108","1717713","4751208","42.882328  ","11.665522  ","052001EP001","1","Museo","5","Scienza e tecnica","PARCO MUSEO MINERARIO DI ABBADIA SAN SALVATORE E GALLERIA LIVELLO VII","Piazzale Renato Rossaro 6","","Abbadia San Salvatore","SI","2"
"5510","1650246","4807488","43.405092  ","10.855185  ","050039ST001","2","Siti archeologici","2","Archeologia","AREE ARCHEOLOGICHE DI VOLTERRA","Viale Ferrucci ","","Volterra","PI","2"
"5512","1608592","4740987","42.813618  ","10.327931  ","049014EP002","3","Monumento o complesso monumentale","1","Arte","FORTEZZE MEDICEE","Via  Guerrazzi ","","Portoferraio","LI","1"
"5516","1681729","4848256","43.764916  ","11.257381  ","048017XX5290","3","Monumento o complesso monumentale","4","Storia e scienze naturali","GIARDINO BARDINI","Via de' Bardi 1/R","","Firenze","FI","1"
"5536","1606133","4822050","43.543712  ","10.313399  ","049009XX5300","1","Museo","1","Arte","CASA NATALE AMEDEO MODIGLIANI","Via Roma 38","","Livorno","LI","1"
"5538","1747045","4825445","43.540928  ","12.057402  ","051001PV001","1","Museo","1","Arte","MUSEO DELLA CONFRATERNITA DELLA MISERICORDIA","Via Francesco Nenci 13","","Anghiari","AR","1"
"5539","1680983","4853170","43.809304  ","11.249777  ","048017EP014","3","Monumento o complesso monumentale","1","Arte","VILLA MEDICEA DI CAREGGI","Viale Pieraccini 17","","Firenze","FI","1"
"5555","1612987","4733323","42.743985  ","10.380135  ","049004XX4401","1","Museo","7","Territoriale","MUSEO DELLA VECCHIA OFFICINA. MINIERE DI CALAMITA ","Località Calamita ","","Capoliveri","LI","1"
"5556","1574836","4908776","","","045006XX010","5","Centri scientifici-culturali","2","Archeologia","CENTRO DI DOCUMENTAZIONE E PRODUZIONE DIDATTICA DI FILATTIERA","Località Pieve di Sorano ","","Filattiera","MS","1"
"5558","1668666","4849155","43.776088  ","11.095494  ","048044XX3875","1","Museo","8","Specializzato","MUSEO DI OGGETTISTICA FERROVIARIA ""GALILEO NESTI"" DI SIGNA ","Piazza Stazione ","","Signa","FI","1"
"5559","1704314","4847594","43.753079  ","11.537462  ","048032PV001","1","Museo","3","Storia","MUSEO DELLA CIVILTA' CONTADINA E DELL'ARTIGIANATO DELLA MONTAGNA","Via di Raggioli 17","Raggioli","Pelago","FI","1"
"5560","1686596","4846967","","","052032XX014","1","Museo","3","Storia","ANTICO SPEDALE DEL BIGALLO","Via Bigello e Apparita 14","","Bagno a Ripoli","FI","1"
"5561","1684354","4843562","43.722033  ","11.288358  ","048001EP003","3","Monumento o complesso monumentale","1","Arte","FONTE DELLA FATA MORGANA - NINFEO DI VILLA VECCHIETTI","Via delle Fonti ","Fattucchia - Grassina","Bagno a Ripoli","FI","1"
"5564","1627890","4839697","43.699132  ","10.586794  ","050038EP001","3","Monumento o complesso monumentale","1","Arte","COMPLESSO MONUMENTALE DI VICOPISANO: ROCCA DEL BRUNELLESCHI E PALAZZO PRETORIO","Via del Pretorio 25","","Vicopisano","PI","1"
"5566","1662365","4853215","43.814034  ","11.018468  ","100002EP001","1","Museo","8","Specializzato","MUSEO DELLA VITE E DEL VINO","Piazza Vittorio Emanuele II 1","","Carmignano","PO","1"
"5570","1665319","4853556","43.816446  ","11.055280  ","100004ST001","3","Monumento o complesso monumentale","1","Arte","VILLA MEDICEA DI POGGIO A CAIANO","Piazza dei Medici 14","","Poggio a Caiano","PO","1"
"5571","1679035","4854390","43.820752  ","11.225981  ","048017ST012","3","Monumento o complesso monumentale","1","Arte","GIARDINO STORICO DELLA VILLA MEDICEA DI CASTELLO","Via di Castello 47","Castello","Firenze","FI","1"
"5572","1732979","4816022","43.460718  ","11.879502  ","051002ST001","1","Museo","2","Archeologia","MUSEO ARCHEOLOGICO NAZIONALE GAIO CILNIO MECENATE DI AREZZO","Via Margaritone 10","","Arezzo","AR","1"
"6079","1668320","4860718","43.880208  ","11.094831  ","100005PV001","1","Museo","1","Arte","GALLERIA DI PALAZZO  ALBERTI","Via degli Alberti 2","","Prato","PO","1"
"5574","1661997","4865192","43.921880  ","11.017528  ","047010XX5303","3","Monumento o complesso monumentale","1","Arte","CASTELLO DI VILLA SMILEA","Via Giuseppe Garibaldi 2/a","","Montale","PT","1"
"5575","1730664","4771275","43.059005  ","11.832190  ","052009EC001","1","Museo","1","Arte","MUSEO DELLA COLLEGIATA DI S. GIOVANNI BATTISTA","Via Solferino 38","","Chianciano Terme","SI","1"
"5576","1702899","4802294","","","052006PV001","3","Monumento o complesso monumentale","1","Arte","PARCO DI SCULTURE DEL CHIANTI","Località La Fornace S.P.9 48/49","Pievasciata","Castelnuovo Berardenga","SI","1"
"6084","1612870","4841263","43.715661  ","10.400783  ","050026EP003","3","Monumento o complesso monumentale","1","Arte","CHIESA DI SANTA MARIA DELLA SPINA","Lungarno Gambacorti ","","Pisa","PI","1"
"5584","1656461","4692168","","","053012EP001","1","Museo","4","Storia e scienze naturali","MUSEO DELLA MINERALOGIA E GEOLOGIA DELL'ISOLA DEL GIGLIO","Via Provinciale 9","Giglio Porto","Isola del Giglio","GR","1"
"6069","1621396","4855378","43.841360  ","10.509780  ","046017EP001","1","Museo","4","Storia e scienze naturali","ORTO BOTANICO LUCCHESE E MUSEO BOTANICO CESARE BICCHI","Via del Giardino botanico 14","","Lucca","LU","1"
"5589","1640179","4863231","43.908702  ","10.745383  ","047008NW001","1","Museo","1","Arte","MUSEO DI SAN MICHELE","Piazza Cavour 1a","","Massa e Cozzile","PT","1"
"5593","1726545","4841799","43.694504  ","11.810832  ","051004EP001","1","Museo","2","Archeologia","MUSEO ARCHEOLOGICO DEL CASENTINO","Via Tosco Romagnola 29","Partina","Bibbiena","AR","1"
"5597","1728848","4837205","","","051008EP001","4","Ecomusei","6","Etnografia e antropologia","CENTRO DI DOCUMENTAZIONE SULLA CULTURA RURALE DEL CASENTINO","Torre di Ronda ","","Castel Focognano","AR","2"
"5601","1717816","4846741","","","051010XX5581","1","Museo","3","Storia","MUSEO DELLA PIETRA LAVORATA. ","-    ","Strada in Casentino","Castel San Niccolò","AR","2"
"6105","1607175","4740309","42.807714  ","10.310471  ","049014NW001","1","Museo","4","Storia e scienze naturali","MUSEO NATURALISTICO DI PORTOFERRAIO","Isola di Montecristo ","Cala Maestra","Portoferraio","LI","1"
"5607","1627316","4874242","","","046002NW001","3","Monumento o complesso monumentale","1","Arte","COMPLESSO MONUMENTALE DELLA CHIESA DI S. CASSIANO DI CONTRONE","Via della Chiesa 2","San Cassiano di Controne","Bagni di Lucca","LU","1"
"5610","1684779","4872948","43.986291  ","11.303784  ","048040EP001","1","Museo","1","Arte","RACCOLTA D'ARTE SACRA CONVENTO DEL BOSCO AI FRATI","Località Lucigliano 1","","San Piero a Sieve","FI","1"
"5611","1676360","4835991","43.655862  ","11.186707  ","048038PV001","1","Museo","1","Arte","MUSEO DELLA MISERICORDIA DELLA CHIESA DI SANTA MARIA DEL PRATO","Via Morrocchesi 72","","San Casciano Val di Pesa","FI","1"
"5614","1700999","4821157","","","051013EC001","3","Monumento o complesso monumentale","1","Arte","MUSEO DELLA PIEVE DI S. GIOVANNI BATTISTA","Piazza Umberto I 4","","Cavriglia","AR","1"
"6107","1718579","4751243","42.882394  ","11.676128  ","052001EC001","1","Museo","1","Arte","MUSEO DELL'ABBAZIA DI SAN SALVATORE","Via del Monastero 42","","Abbadia San Salvatore","SI","1"
"5616","1713245","4764833","43.006152  ","11.616056  ","052007XX009","1","Museo","1","Arte","SALA D'ARTE DI SAN GIOVANNI","Via San Giovanni  10","","Castiglione d'Orcia","SI","1"
"5617","1710578","4781118","","","052029XX019","2","Siti archeologici","2","Archeologia","SCAVI ARCHEOLOGICI DI PAVA","Strada Provinciale Traversa dei Monti ","Pava","San Giovanni d'Asso","SI","1"
"5618","1746952","4825414","43.540682  ","12.056244  ","051001ST001","1","Museo","1","Arte","MUSEO STATALE DI PALAZZO TAGLIESCHI","Via Mameli 16","","Anghiari","AR","1"
"5637","1650823","4877846","44.038117  ","10.882020  ","047019EP003","4","Ecomusei","8","Specializzato","ECOMUSEO MONTAGNA PISTOIESE. POLO DEL FERRO E GIARDINO DIDATTICO DI PONTEPETRI","Via La Piana 62","Pontepetri","San Marcello Pistoiese","PT","1"
"5643","1629570","4763762","43.015367  ","10.589688  ","049002EP001","2","Siti archeologici","2","Archeologia","PARCO ARCHEOMINERARIO DI SAN SILVESTRO","Via di S. Vincenzo 34/b","Temperino","Campiglia Marittima","LI","1"
"5644","1623842","4761701","42.997772  ","10.518966  ","049012ST001","2","Siti archeologici","2","Archeologia","PARCO ARCHEOLOGICO DI BARATTI E POPULONIA","Località Baratti ","Populonia","Piombino","LI","1"
"6063","1694161","4781451","43.160767  ","11.387914  ","052019EP001","1","Museo","2","Archeologia","ANTIQUARIUM DI POGGIO CIVITATE - MUSEO ARCHEOLOGICO","Piazza della Cattedrale 4","","Murlo","SI","1"
"5646","1681217","4848795","43.769891  ","11.251206  ","048017PV017","1","Museo","8","Specializzato","MUSEO SALVATORE FERRAGAMO","Piazza Santa Trinita 5","","Firenze","FI","1"
"6059","1669583","4858648","43.861291  ","11.109883  ","100005MA001","1","Museo","77","Arte contemporanea","CENTRO PER L'ARTE CONTEMPORANEA LUIGI PECCI","Viale della Repubblica 277","","Prato","PO","1"
"5649","1599942","4889223","44.149213  ","10.249340  ","046019XX3846","1","Museo","6","Etnografia e antropologia","MUSEO DELL'IDENTITA' DELL'ALTA GARFAGNANA ""OLINTO CAMMELLI"" ","Località Chiesa Vecchia Gorfigliano ","","Minucciano","LU","1"
"5650","1585471","4878888","44.058012  ","10.066764  ","045003EP001","1","Museo","8","Specializzato","MUSEO CIVICO DEL MARMO","Viale XX Settembre ","Stadio","Carrara","MS","1"
"5651","1625090","4826417","43.580082  ","10.548979  ","050013PV001","1","Museo","1","Arte","RACCOLTA CARLO PEPI","Via I Gioielli 13/15","","Crespina","PI","1"
"5652","1668768","4849708","43.781045  ","11.096927  ","048044XX4624","1","Museo","1","Arte","MUSEO DI ARTE SACRA DELLA PIEVE DEI SANTI GIOVANNI BATTISTA E LORENZO DI SIGNA","Piazza Cavour ","","Signa","FI","1"
"5654","1685502","4849664","43.776642  ","11.304704  ","048017PV001","1","Museo","8","Specializzato","MUSEO DEL CALCIO","Via Aldo Palazzeschi 20","","Firenze","FI","1"
"6080","1614666","4741052","42.813318  ","10.402220  ","049016EP002","1","Museo","2","Archeologia","CIVICO MUSEO ARCHEOLOGICO DEL DISTRETTO MINERARIO","Via G. Mazzini 37","","Rio nell'Elba","LI","1"
"6110","1663925","4849815","43.783091  ","11.036821  ","100002EP003","1","Museo","2","Archeologia","MUSEO ARCHEOLOGICO ARTIMINO FRANCESCO NICOSIA","Piazza San Carlo 3","Artimino","Carmignano","PO","1"
"5661","1704446","4826579","43.564008  ","11.531143  ","051033EP001","1","Museo","1","Arte","CASA MASACCIO - GALLERIA COMUNALE D'ARTE CONTEMPORANEA","Corso Italia 83","","San Giovanni Valdarno","AR","1"
"5664","1579332","4907405","44.315401  ","9.9944274  ","045002NW001","1","Museo","3","Storia","MAM - MUSEO ARCHIVIO DELLA MEMORIA","Piazza Marconi 7","","Bagnone","MS","2"
"5666","1684723","4845618","43.740443  ","11.293641  ","048017NW014","1","Museo","8","Specializzato","MUSEO DEL CICLISMO GINO BARTALI","Via Chiantigiana 177","Ponte a Ema","Firenze","FI","1"
"5670","1742161","4795836","43.276290  ","11.983929  ","051017EC002","1","Museo","1","Arte","MUSEO DIOCESANO DEL CAPITOLO DI CORTONA","Piazza del Duomo 1","","Cortona","AR","1"
"5671","1704390","4826516","","","051033EC001","1","Museo","1","Arte","MUSEO DELLA BASILICA S. MARIA DELLE GRAZIE","Piazza Masaccio 8","","San Giovanni Valdarno","AR","1"
"5673","1651286","4846834","43.758955  ","10.878992  ","048011ST001","1","Museo","1","Arte","MUSEO STORICO DELLA CACCIA E DEL TERRITORIO DELLA VILLA MEDICEA","Via Ponti Medicei 12","","Cerreto Guidi","FI","1"
"5674","1736530","4842442","","","051015EC001","1","Museo","1","Arte","SANTUARIO DELLA VERNA","Via del Santuario 45","","Chiusi della Verna","AR","1"
"5675","1567688","4918670","44.417986  ","9.8499143  ","045014EP001","1","Museo","2","Archeologia","MUSEO DELLE STATUE-STELE LUNIGIANESI","Castello del Piagnaro ","","Pontremoli","MS","1"
"5676","1667192","4860659","43.879932  ","11.080773  ","100005EP006","1","Museo","4","Storia e scienze naturali","MUSEO DI SCIENZE PLANETARIE","Via Galcianese 20/h","","Prato","PO","1"
"5679","1668026","4865482","43.923137  ","11.092675  ","100005EP002","1","Museo","3","Storia","MUSEO DELLA DEPORTAZIONE","Via di Cantagallo 250","Figline ","Prato","PO","1"
"5680","1682007","4849072","43.772184  ","11.261112  ","048017PV007","1","Museo","2","Archeologia","MUSEO E ISTITUTO FIORENTINO DI PREISTORIA","Via Sant`Egidio 21","","Firenze","FI","1"
"5681","1622407","4824942","43.567246  ","10.515436  ","050014NW001","1","Museo","1","Arte","MUSEO GIORGIO KIENERK","Via Chiostra I 13","","Fauglia","PI","1"
"5682","1681030","4849133","43.772974  ","11.249007  ","048017NW003","1","Museo","1","Arte","MNAF - MUSEO NAZIONALE ALINARI DELLA FOTOGRAFIA","Piazza Santa Maria Novella 14a r","","Firenze","FI","1"
"5687","1681589","4849399","43.775229  ","11.256026  ","048017EP004","3","Monumento o complesso monumentale","1","Arte","PALAZZO MEDICI RICCARDI","Via Cavour 3","","Firenze","FI","1"
"5688","1635506","4826743","43.581192  ","10.678012  ","050005EP002","1","Museo","4","Storia e scienze naturali","MUSEI DI VILLA BACIOCCHI - MUSEO ZOOLOGICO E CENTRO DI DOCUMENTAZIONE ARCHEOLOGICA DELLA VALDERA","Piazza Castello  1","","Capannoli","PI","1"
"5691","1689744","4798498","43.315261  ","11.339500  ","052032EP001","1","Museo","1","Arte","MUSEO BOLOGNA BUONSIGNORI","Via Roma 50","","Siena","SI","1"
"5692","1689117","4799169","43.321455  ","11.332004  ","052032ST001","1","Museo","1","Arte","PINACOTECA NAZIONALE DI SIENA","Via San Pietro 29","","Siena","SI","1"
"6085","1636641","4771005","","","049020EC001","1","Museo","1","Arte","MUSEO DI ARTE SACRA DI SAN GIUSTO SUVERETO","Piazza Vittorio Veneto 3","","Suvereto","LI","1"
"5696","1676703","4810108","43.422903  ","11.182541  ","052022EC001","1","Museo","1","Arte","RACCOLTA D'ARTE SACRA DI STAGGIA","Piazza Grazzini 4","Staggia Senese","Poggibonsi","SI","1"
"5697","1673690","4814220","43.460604  ","11.146659  ","052022EP001","2","Siti archeologici","2","Archeologia","PARCO ARCHEOLOGICO E TECNOLOGICO DI POGGIO IMPERIALE","Via Fortezza Medicea 1","Fortezza","Poggibonsi","SI","1"
"5698","1721952","4772009","43.068203  ","11.725624  ","052021MA001","1","Museo","8","Specializzato","TEPOTRATOS - SCENE DEL TEATRO POPOLARE TRADIZIONALE TOSCANO","Piazza Nuova 1","Monticchiello","Pienza","SI","1"
"5700","1689743","4798438","43.314722  ","11.339461  ","052032XX011","1","Museo","5","Scienza e tecnica","SIMUS - COLLEZIONE DEGLI STRUMENTI DI FISICA","Via Roma 56","","Siena","SI","1"
"5701","1689743","4798438","43.314722  ","11.339461  ","052032XX012","1","Museo","3","Storia","SIMUS - COLLEZIONI DI PREISTORIA, ARCHEOLOGIA CLASSICA, ARCHEOLOGIA MEDIEVALE","Via Roma 56","","Siena","SI","1"
"5703","1688447","4802105","43.348043  ","11.324754  ","052032US005","1","Museo","5","Scienza e tecnica","SIMUS - MUSEO ANATOMICO LEONETTO COMPARINI","Via Aldo Moro 6","","Siena","SI","1"
"5709","1627800","4861235","43.892989  ","10.590811  ","046007PV004","3","Monumento o complesso monumentale","1","Arte","VILLA MANSI","Via delle Selvette 242","Segromigno in Monte","Capannori","LU","1"
"5710","1707767","4790112","","","052002EC001","1","Museo","1","Arte","MUSEO DELL'ABBAZIA DI MONTE OLIVETO MAGGIORE","Località Chiusure ","","Asciano","SI","1"
"5711","1672684","4849869","43.781593  ","11.145606  ","048041NW001","1","Museo","4","Storia e scienze naturali","MUSEO PALEONTOLOGICO SCIENZA DELLA TERRA DEL GAMPS","Piazza Vittorio Veneto 1","Badia a Settimo","Scandicci","FI","1"
"5712","1753743","4828775","43.568626  ","12.141739  ","051034MA002","1","Museo","1","Arte","MUSEO 'BERNARDINI-FATTI' DELLA VETRATA ANTICA","Via Giovanni Buitoni 9","","Sansepolcro","AR","1"
"5713","1736610","4760792","42.962904  ","11.900673  ","052008EP002","1","Museo","2","Archeologia","MUSEO CIVICO PER LA PREISTORIA DEL MONTE CETONA","Via Roma 37","","Cetona","SI","1"
"5719","1577376","4895368","44.207261  ","9.9681293  ","045001NW001","3","Monumento o complesso monumentale","1","Arte","ABBAZIA DI SAN CAPRASIO. SITO ARCHEOLOGICO E SALE ESPOSITIVE","Piazza Abbazia ","","Aulla","MS","1"
"5720","1742892","4795898","43.276612  ","11.992954  ","051017EP001","3","Monumento o complesso monumentale","1","Arte","FORTEZZA MEDICEA DEL GIRIFALCO","Via Fortezza ","","Cortona","AR","1"
"5721","1722914","4794990","43.274620  ","11.746682  ","051021NW001","1","Museo","1","Arte","ORATORIO DELLA MISERICORDIA E MOSTRA RELIGIOSA DELLA CARITA'","Via della Misericordia 14","","Lucignano","AR","1"
"5722","1652051","4795684","43.298492  ","10.874181  ","050027EP001","1","Museo","1","Arte","CASA 'BICOCCHI'","Via Roncalli 20","","Pomarance","PI","1"
"5729","1735430","4758585","42.943420  ","11.885293  ","052008EP001","2","Siti archeologici","2","Archeologia","PARCO ARCHEOLOGICO NATURALISTICO DI BELVERDE E ARCHEODROMO","Strada della Montagna ","Belverde","Cetona","SI","1"
"5731","1598159","4872065","","","046028EP001","1","Museo","6","Etnografia e antropologia","MUSEO DEL LAVORO E DELLE TRADIZIONI POPOLARI DELLA VERSILIA STORICA","Via del Palazzo 358","","Seravezza","LU","1"
"6092","1689044","4798360","43.314200  ","11.330824  ","052032PV002","1","Museo","4","Storia e scienze naturali","MUSEO DI STORIA NATURALE DELL'ACCADEMIA DEI FISIOCRITICI","Piazzetta Silvio Gigli (Prato di Sant'Agostino) 2","","Siena","SI","1"
"6111","1665523","4853504","43.815928  ","11.057800  ","100004NW001","1","Museo","1","Arte","MUSEO ARDENGO SOFFICI","Via Lorenzo il Magnifico 9","","Poggio a Caiano","PO","1"
"5734","1593732","4868028","","","046013PV001","1","Museo","8","Specializzato","MUSEO DELLA SATIRA E DELLA CARICATURA","Piazza Giuseppe Garibaldi 1","","Forte dei Marmi","LU","1"
"5735","1600609","4860970","43.894811  ","10.252312  ","046033NW002","1","Museo","8","Specializzato","MUSEO DEL CARNEVALE","Via Santa Maria Goretti ","","Viareggio","LU","1"
"5736","1612940","4885044","44.109712  ","10.410921  ","046009EP001","1","Museo","2","Archeologia","MUSEO ARCHEOLOGICO DEL TERRITORIO DELLA GARFAGNANA","Piazzetta Ariosto ","","Castelnuovo di Garfagnana","LU","1"
"5738","1599257","4860280","","","046033EP001","1","Museo","2","Archeologia","MUSEI CIVICI DI VILLA PAOLINA - MUSEO ARCHEOLOGICO ALBERTO CARLO BLANC, MUSEO DEGLI STRUMENTI MUSICALI GIOVANNI CIUFFREDA E ATELIER ALFREDO CATARSINI","Via Machiavelli 2","","Viareggio","LU","1"
"5739","1613381","4868965","","","046022PV001","1","Museo","6","Etnografia e antropologia","MUSEO DEL CASTAGNO","Via Fratta 4","Val di Roggio - Colognora","Pescaglia","LU","1"
"5740","1681449","4849407","43.775340  ","11.254294  ","048017EC002","3","Monumento o complesso monumentale","1","Arte","BASILICA DI SAN LORENZO","Piazza San Lorenzo ","","Firenze","FI","1"
"5742","1681506","4848060","43.763204  ","11.254549  ","048017XX5292","1","Museo","1","Arte","VILLA BARDINI - MUSEO PIETRO ANNIGONI E MUSEO ROBERTO CAPUCCI","Via Costa a San Giorgio 2","","Firenze","FI","1"
"5752","1665637","4800801","43.341675  ","11.043114  ","052004EC001","1","Museo","1","Arte","MUSEO CIVICO, ARCHEOLOGICO E DELLA COLLEGIATA","Piazza della Libertà 5","","Casole d'Elsa","SI","1"
"5754","1623643","4870566","43.977682  ","10.541244  ","046004XX4397","1","Museo","3","Storia","MUSEO DELLA MEMORIA E MUSEO ARCHEOLOGICO DI BORGO A MOZZANO","Piazza Marconi 1","","Borgo a Mozzano","LU","1"
"5757","1697933","4867404","43.933002  ","11.465599  ","048049NW001","3","Monumento o complesso monumentale","1","Arte","ORATORIO DI SAN FILIPPO NERI - CAPPELLA DELLA MISERICORDIA DI VICCHIO","Corso del Popolo 29","","Vicchio","FI","1"
"5758","1649341","4837969","43.679580  ","10.852389  ","050032EP002","3","Monumento o complesso monumentale","1","Arte","ORATORIO DEL LORETINO","Via vittime del Duomo 11","","San Miniato","PI","1"
"5759","1649747","4837987","","","050032EP001","3","Monumento o complesso monumentale","1","Arte","ROCCA DI FEDERICO II","Collina Sommitale ","","San Miniato","PI","1"
"5763","1740267","4766920","43.016862  ","11.948083  ","052011EP001","1","Museo","2","Archeologia","MUSEO CIVICO LA CITTA' SOTTERRANEA","Via Il Ciminia 2-8","","Chiusi","SI","2"
"5768","1734023","4763724","42.990068  ","11.870219  ","052031EP001","1","Museo","2","Archeologia","MUSEO CIVICO ARCHEOLOGICO DI SARTEANO","Via Roma 24","","Sarteano","SI","2"
"5769","1740849","4836704","43.644197  ","11.985823  ","051007EP001","1","Museo","1","Arte","MUSEO MICHELANGIOLESCO","Via Capoluogo 1","","Caprese Michelangelo","AR","2"
"5770","1660031","4885319","","","047018EP001","4","Ecomusei","8","Specializzato","ECOMUSEO DELLA MONTAGNA PISTOIESE. POLO DIDATTICO DELLA PIETRA E VIA FANCESCA DELLA SAMBUCA","Piazza della Chiesa. 1","Pàvana","Sambuca Pistoiese","PT","1"
"5771","1668450","4860789","43.880815  ","11.096464  ","100005EP004","1","Museo","1","Arte","MUSEO DI PALAZZO PRETORIO (EX MUSEO CIVICO DI PRATO)","Piazza Del Comune 1","","Prato","PO","1"
"5772","1680111","4806553","43.390106  ","11.223439  ","052016NW002","1","Museo","3","Storia","MONTERIGGIONI IN ARME","Piazza Roma 23","","Monteriggioni","SI","1"
"5773","1677261","4847499","","","048041NW002","3","Monumento o complesso monumentale","1","Arte","PARCO MUSEO DI POGGIO VALICAIA","Via Poggiona 6/a","","Scandicci","FI","1"
"5774","1656971","4842639","43.720025  ","10.948356  ","048014EP001","1","Museo","3","Storia","MUSEO CASA DI FERRUCCIO BUSONI","Piazza della Vittoria 16","","Empoli","FI","1"
"5775","1678989","4844746","43.733999  ","11.222196  ","048017EC001","3","Monumento o complesso monumentale","1","Arte","PINACOTECA DELLA CERTOSA DI FIRENZE","Certosa Via della Certosa 1","Galluzzo","Firenze","FI","1"
"5779","1665205","4814821","43.467930  ","11.042029  ","052028NW002","1","Museo","8","Specializzato","MUSEO DELLA VERNACCIA DI SAN GIMIGNANO","Via della Rocca, 1 ","","San Gimignano","SI","1"
"5780","1682030","4851952","43.798091  ","11.262369  ","048017XX4124","3","Monumento o complesso monumentale","1","Arte","COLLEZIONE ACTON - VILLA LA PIETRA","Via Bolognese 120","","Firenze","FI","1"
"5781","1653420","4736297","","","053006EP001","1","Museo","2","Archeologia","MUSEO CIVICO ARCHEOLOGICO 'ISIDORO FALCHI'","Piazza Vetluna 1","Vetulonia","Castiglione della Pescaia","GR","1"
"5782","1658955","4829921","43.605167  ","10.969218  ","048010EP001","1","Museo","1","Arte","BE-GO, MUSEO DI BENOZZO GOZZOLI","Via Testaferrata 31","","Castelfiorentino","FI","1"
"5783","1655449","4851071","43.796223  ","10.931912  ","048050XX5749","1","Museo","3","Storia","CASA NATALE DI LEONARDO DA VINCI AD ANCHIANO","Via di Anchiano  ","Anchiano","Vinci","FI","1"
"5784","1655077","4850002","43.786684  ","10.926975  ","048050EP002","1","Museo","5","Scienza e tecnica","MUSEO LEONARDIANO","Piazza dei Guidi ","","Vinci","FI","1"
"5786","1588289","4880813","44.075009  ","10.102258  ","045003NW001","1","Museo","77","Arte contemporanea","CENTRO ARTI PLASTICHE  (CAP)","Via Canal del Rio ","","Carrara","MS","1"
"6090","1624233","4753413","42.923100  ","10.521923  ","049012MA002","1","Museo","2","Archeologia","MUSEO ARCHEOLOGICO DEL TERRITORIO DI POPULONIA","Piazza Cittadella 8","","Piombino","LI","1"
"5790","1631600","4768722","","","049002EP002","1","Museo","2","Archeologia","MUSEO DELLA ROCCA DI CAMPIGLIA","Via 25 Luglio ","","Campiglia Marittima","LI","1"
"5791","1688447","4802105","43.348043  ","11.324754  ","052032US002","1","Museo","5","Scienza e tecnica","SIMUS - CUTVAP CENTRO SERVIZI DI ATENEO TUTELA E VALORIZZAZIONE ANTICO PATRIMONIO SCIENTIFICO SENESE ","Via Aldo Moro 6","","Siena","SI","1"
"5792","1639042","4823277","43.549349  ","10.720905  ","050025NW001","1","Museo","2","Archeologia","MUSEO ARCHEOLOGICO DI PECCIOLI","Piazza del Carmine 33","","Peccioli","PI","1"
"5793","1673178","4736414","42.760587  ","11.116071  ","053011EP001","1","Museo","4","Storia e scienze naturali","MUSEO DI STORIA NATURALE DELLA MAREMMA","Strada Corsini 5","","Grosseto","GR","1"
"6060","1668625","4849768","43.781612  ","11.095179  ","048044PV001","1","Museo","6","Etnografia e antropologia","MUSEO DELLA PAGLIA E DELL'INTRECCIO 'DOMENICO MICHELACCI'","Via degli Alberti 11","","Signa","FI","1"
"5795","1639046","4823103","43.547786  ","10.720906  ","050025EP001","1","Museo","1","Arte","MUSEO DELLE ICONE RUSSE F.BIGAZZI","Piazza del Popolo 5","","Peccioli","PI","1"
"5796","1639047","4823095","43.547709  ","10.720926  ","050025XX004","1","Museo","1","Arte","MUSEO DI ARTE SACRA DI PECCIOLI","Piazza Fra Domenico ","","Peccioli","PI","1"
"5797","1639020","4823055","43.547356  ","10.720578  ","050025NW002","1","Museo","77","Arte contemporanea","MUSEO DI INCISIONI E LITOGRAFIE - DONAZIONE VITO MERLINI","Via Lambercione 5","","Peccioli","PI","1"
"5799","1689189","4798910","43.319111  ","11.332798  ","052032XX3804","1","Museo","3","Storia","SIMUS - ARCHIVIO E PERCORSO STORICO","Via Banchi di Sotto 55","","Siena","SI","1"
"5801","1667422","4863988","43.909836  ","11.084685  ","100005EP003","1","Museo","4","Storia e scienze naturali","CENTRO DI SCIENZE NATURALI DI GALCETI","Via Galceti 74","Galceti","Prato","PO","1"
"5804","1733165","4816716","43.466893  ","11.882096  ","051002NW001","1","Museo","5","Scienza e tecnica","MUSEO DEI MEZZI DI COMUNICAZIONE","Via Ricasoli 22","","Arezzo","AR","1"
"5805","1688393","4798348","43.314250  ","11.322805  ","052032US004","1","Museo","4","Storia e scienze naturali","SIMUS - MUSEO NAZIONALE DELL'ANTARTIDE FELICE IPPOLITO","Via del Laterino 8","","Siena","SI","1"
"5806","1688393","4798348","43.314250  ","11.322805  ","052032XX020","1","Museo","4","Storia e scienze naturali","SIMUS - MUSEO DI SCIENZE DELLA TERRA","Via del Laterino 8","","Siena","SI","1"
"5810","1681113","4849168","43.773273  ","11.250039  ","048017EP009","3","Monumento o complesso monumentale","1","Arte","MUSEO DI SANTA MARIA NOVELLA","Piazza Santa Maria Novella ","","Firenze","FI","1"
"5814","1612555","4841550","43.718293  ","10.396926  ","050026US001","1","Museo","2","Archeologia","COLLEZIONI PALETNOLOGICHE E PALEONTOLOGICHE DELL'UNIVERSITA' DEGLI STUDI DI PISA","Via Santa Maria 53","","Pisa","PI","1"
"5815","1681085","4849007","43.771830  ","11.249646  ","048017EP008","1","Museo","1","Arte","MUSEO MARINO MARINI DI FIRENZE","Piazza San Pancrazio snc","","Firenze","FI","1"
"5817","1681727","4849455","43.775698  ","11.257768  ","048017XX3824","1","Museo","8","Specializzato","GALLERIA DELL'ACCADEMIA - DIPARTIMENTO DEGLI STRUMENTI MUSICALI: COLLEZIONE DEL CONSERVATORIO LUIGI CHERUBINI","Via Ricasoli 58-60","","Firenze","FI","1"
"5818","1681727","4849455","43.775698  ","11.257768  ","048017ST010","1","Museo","1","Arte","GALLERIA DELL'ACCADEMIA","Via Ricasoli 58-60","","Firenze","FI","1"
"5819","1622419","4842373","43.724135  ","10.519531  ","050003ST001","3","Monumento o complesso monumentale","1","Arte","MUSEO STORICO ARTISTICO DELLA CERTOSA MONUMENTALE DI CALCI","Via Roma 79","","Calci","PI","1"
"6095","1718651","4723567","42.633416  ","11.666304  ","053019NW001","1","Museo","3","Storia","MUSEO DI CULTURA EBRAICA LA PICCOLA GERUSALEMME","Vicolo Marghera ","","Pitigliano","GR","1"
"5821","1682215","4848816","43.769837  ","11.263603  ","048017PV005","1","Museo","1","Arte","CASA BUONARROTI","Via Ghibellina 70","","Firenze","FI","1"
"5822","1653882","4866317","43.933741  ","10.916829  ","047014PV001","1","Museo","1","Arte","ANTICO PALAZZO DEI VESCOVI E MUSEO DELLA CATTEDRALE DI SAN ZENO","Piazza del Duomo 4","","Pistoia","PT","1"
"5823","1681515","4849126","43.772792  ","11.255018  ","048017PV011","1","Museo","1","Arte","MUSEO DEL BIGALLO","Piazza San Giovanni 1","","Firenze","FI","1"
"5826","1649234","4837969","43.679600  ","10.851067  ","050032EC002","1","Museo","1","Arte","MUSEO DIOCESANO D'ARTE SACRA DI SAN MINIATO","Piazza del Duomo 1","","San Miniato","PI","1"
"5829","1702739","4770252","43.057775  ","11.489246  ","052014EP002","1","Museo","1","Arte","MUSEO CIVICO E DIOCESANO. RACCOLTA ARCHEOLOGICA DI MONTALCINO","Via Ricasoli 31","","Montalcino","SI","1"
"5830","1681594","4700594","42.436305  ","11.207443  ","053018EP002","1","Museo","2","Archeologia","MOSTRA PERMANENTE FRONTONE DI TALAMONE","Via Mura di Levante 7","","Orbetello","GR","1"
"5831","1675061","4713613","42.554972  ","11.132049  ","053018EP001","1","Museo","8","Specializzato","MUSEO DELLA PESCA E DELLE TRADIZIONI LAGUNARI","Via Nizza 24","Talamone","Orbetello","GR","1"
"5834","1620701","4855424","43.841889  ","10.501138  ","046017NW001","1","Museo","3","Storia","MUSEO PAOLO CRESCI PER LA STORIA DELL'EMIGRAZIONE ITALIANA","Via Vittorio Emanuele 3","","Lucca","LU","1"
"5836","1636372","4839732","43.697939  ","10.692019  ","050035EP001","1","Museo","3","Storia","MUSEO CASA CARDUCCI","Via Carducci 59","","Santa Maria a Monte","PI","1"
"5838","1740369","4766820","43.015932  ","11.949292  ","052011ST001","1","Museo","2","Archeologia","MUSEO NAZIONALE ETRUSCO DI CHIUSI","Via Porsenna 93","","Chiusi","SI","1"
"5842","1612443","4841794","43.720502  ","10.395587  ","050026US006","1","Museo","8","Specializzato","MUSEO DI ANATOMIA E ISTOLOGIA PATOLOGICA","Via Roma 57","","Pisa","PI","1"
"5843","1645775","4859201","43.871350  ","10.813941  ","047009EP002","1","Museo","7","Territoriale","MUSEO DELLA CITTA' E DEL TERRITORIO","Piazza F. Martini ","","Monsummano Terme","PT","1"
"5844","1682260","4848264","43.764852  ","11.263971  ","048017EP013","1","Museo","1","Arte","CASA 'RODOLFO SIVIERO'","Lungarno Serristori 1 e 3","","Firenze","FI","1"
"5845","1682036","4849874","43.779399  ","11.261741  ","048017US001","5","Centri scientifici-culturali","4","Storia e scienze naturali","MUSEO DI STORIA NATURALE DELL'UNIVERSITA' DI FIRENZE - SEZIONE ORTO BOTANICO GIARDINO DEI SEMPLICI","Via P. A. Micheli 3","","Firenze","FI","1"
"5846","1600456","4857658","43.865019  ","10.249788  ","046033NW001","1","Museo","8","Specializzato","MUSEO DELLA MARINERIA ""ALBERTO GIANNI""","Via Pescheria 9","","Viareggio","LU","1"
"5849","1689198","4799148","43.321246  ","11.332996  ","052032PV010","1","Museo","8","Specializzato","MUSEO DELLA CONTRADA DELLA GIRAFFA","Via delle Vergini 14","","Siena","SI","1"
"5850","1668578","4860313","43.876503  ","11.097905  ","100005MA002","1","Museo","8","Specializzato","MUSEO DEL TESSUTO","Via Puccetti 3","","Prato","PO","1"
"5851","1654033","4768310","43.051739  ","10.890988  ","053015EP004","3","Monumento o complesso monumentale","6","Etnografia e antropologia","ANTICO FRANTOIO","Via Populonia 3","","Massa Marittima","GR","1"
"5852","1653779","4768166","43.050496  ","10.887838  ","053015EP005","1","Museo","6","Etnografia e antropologia","ANTICA FALEGNAMERIA","Vicolo Massaini ","","Massa Marittima","GR","1"
"5853","1661843","4772001","43.083329  ","10.987898  ","053015EP001","1","Museo","2","Archeologia","MUSEO ARCHEOLOGICO DI MASSA MARITTIMA","Piazza Garibaldi 1","","Massa Marittima","GR","1"
"5856","1620836","4855706","","","046017XX5384","2","Siti archeologici","2","Archeologia","DOMUS ROMANA LUCCA ""CASA DEL FANCIULLO SUL DELFINO""","Via Cerase Battisti 15","","Lucca","LU","1"
"5857","1717845","4853460","43.801982  ","11.707729  ","051036PV003","1","Museo","8","Specializzato","MUSEO DELL'ARTE DELLA LANA","Via  Giovanni Sartori 2","","Stia","AR","1"
"5858","1681909","4848593","43.767904  ","11.259726  ","048017PV009","1","Museo","1","Arte","MUSEO DELLA FONDAZIONE HERBERT PERCY HORNE","Via dei Benci 6","","Firenze","FI","1"
"6101","1613239","4841069","43.713862  ","10.405315  ","050026NW001","1","Museo","1","Arte","MUSEO DELLA GRAFICA","Lungarno Galileo Galilei 9","","Pisa","PI","1"
"5860","1681649","4849225","43.773652  ","11.256718  ","048017NW004","1","Museo","1","Arte","RACCOLTE D'ARTE ARCICONFRATERNITA DELLA MISERICORDIA","Piazza Duomo 20","","Firenze","FI","1"
"5861","1681649","4848548","43.767564  ","11.256492  ","048017PV006","1","Museo","5","Scienza e tecnica","MUSEO GALILEO. ISTITUTO E MUSEO DI STORIA DELLA SCIENZA","Piazza dei Giudici 1","","Firenze","FI","1"
"5862","1681484","4851253","43.791935  ","11.255351  ","048017MA002","1","Museo","1","Arte","MUSEO 'STIBBERT'","Via Federigo Stibbert 26","","Firenze","FI","1"
"5865","1703000","4802625","43.348925  ","11.504343  ","052006EP001","1","Museo","8","Specializzato","MUSEO DEL PAESAGGIO","Via Chianti 61","","Castelnuovo Berardenga","SI","1"
"5866","1681249","4707898","42.502121  ","11.205554  ","053018EP003","1","Museo","6","Etnografia e antropologia","MUSEO DELLA CULTURA CONTADINA DI ALBINIA","Via Salvo D'Acquisto 2","Albinia","Orbetello","GR","1"
"5867","1606185","4821190","43.535960  ","10.313885  ","049009EP002","1","Museo","4","Storia e scienze naturali","MUSEO DI STORIA NATURALE DEL MEDITERRANEO","Via Roma 234","","Livorno","LI","1"
"5871","1577663","4895678","44.210025  ","9.9717684  ","045001EP001","3","Monumento o complesso monumentale","4","Storia e scienze naturali","MUSEO DI STORIA NATURALE DELLA LUNIGIANA","Via della Brunella ","Fortezza della Brunella","Aulla","MS","1"
"5872","1656750","4842565","43.719407  ","10.945590  ","048014EP002","1","Museo","4","Storia e scienze naturali","MUSEO CIVICO PALEONTOLOGICO DI EMPOLI","Piazza Farinata degli Uberti 8","","Empoli","FI","1"
"6100","1622419","4842373","43.724135  ","10.519531  ","050003US001","5","Centri scientifici-culturali","4","Storia e scienze naturali","MUSEO DI STORIA NATURALE - CENTRO DI ATENEO UNIVERSITA' DI PISA","Via Roma 79","","Calci","PI","1"
"5874","1672993","4736530","42.761672  ","11.113848  ","053011EP002","1","Museo","2","Archeologia","MUSEO ARCHEOLOGICO E D' ARTE DELLA MAREMMA","Piazza Baccarini 3","","Grosseto","GR","1"
"5876","1671684","4809919","43.422362  ","11.120529  ","052012EP002","1","Museo","2","Archeologia","MUSEO ARCHEOLOGICO 'R. BIANCHI BANDINELLI'","Piazza del Duomo 42","","Colle Val d'Elsa","SI","1"
"5877","1647411","4860886","43.886188  ","10.834756  ","047009EP001","1","Museo","1","Arte","MUSEO DI ARTE CONTEMPORANEA E DEL NOVECENTO","Via Gragnano 349","","Monsummano Terme","PT","1"
"5878","1627573","4807858","43.412615  ","10.575380  ","050010EP001","4","Ecomusei","7","Territoriale","ECOMUSEO DELL'ALABASTRO PUNTO MUSEALE CENTRALE","Piazza Cavour 1","","Castellina Marittima","PI","1"
"5881","1654536","4823983","43.552655  ","10.912812  ","048027EP001","1","Museo","2","Archeologia","MUSEO COMUNALE SEZIONE ARCHEOLOGICA","Via Cresci 15/19","","Montaione","FI","1"
"5882","1653328","4820829","43.524522  ","10.896976  ","048027EC001","3","Monumento o complesso monumentale","1","Arte","MOSTRA PERMANENTE 'UNA GERUSALEMME IN VAL D'ELSA' E CAPPELLE DEL SACRO MONTE DI SAN VIVALDO","Località San Vivaldo ","","Montaione","FI","1"
"5883","1707446","4822360","43.525235  ","11.566635  ","051026XX3806","1","Museo","1","Arte","IL CASSERO PER LA SCULTURA ITALIANA DELL'OTTOCENTO E DEL NOVECENTO","Via Trieste 1","","Montevarchi","AR","2"
"5884","1621204","4855508","43.842562  ","10.507414  ","046017XX5321","1","Museo","7","Territoriale","MUST - MUSEO DELLA CITTA' DI LUCCA - MEMORIA URBANA STORIA TERRITORIO","Via Guinigi  ","","Lucca","LU","1"
"5886","1599824","4858339","43.871239  ","10.242050  ","046033NW003","1","Museo","1","Arte","GAMC - GALLERIA D'ARTE MODERNA E CONTEMPORANEA LORENZO VIANI","Piazza Mazzini  ","","Viareggio","LU","1"
"5888","1688856","4874136","43.995940  ","11.355011  ","048042EP002","1","Museo","8","Specializzato","MUSEO DEI FERRI TAGLIENTI - BOTTEGA DEL COLTELLINAIO E PALAZZO DEI VICARI","Piazza dei Vicari ","","Scarperia","FI","2"
"5889","1626463","4863783","","","046007EP001","1","Museo","2","Archeologia","LUOGHI E GENTE DELL'AUSER","Via Cardinale A. Pacini 20","","Capannori","LU","1"
"5890","1678840","4850245","43.783507  ","11.222179  ","048017XX3825","1","Museo","5","Scienza e tecnica","MUSEO DELLA DIDATTICA IN AGRICOLTURA","Via delle Cascine 11","","Firenze","FI","1"
"5892","1684023","4853329","43.809987  ","11.287604  ","048015PV001","1","Museo","1","Arte","MUSEO DELLA FONDAZIONE PRIMO CONTI","Via Giovanni Dupré 18","","Fiesole","FI","1"
"5893","1620729","4855580","43.843288  ","10.501529  ","046017PV002","1","Museo","3","Storia","MUSEO CASA NATALE GIACOMO PUCCINI","Corte San Lorenzo 9","","Lucca","LU","1"
"5895","1689950","4870164","","","048004EP001","1","Museo","1","Arte","MUSEO DELLA MANIFATTURA CHINI","Piazza Lavacchini  1","","Borgo San Lorenzo","FI","1"
"5896","1689950","4870164","","","048004PV001","1","Museo","6","Etnografia e antropologia","MUSEO DELLA CIVILTA' CONTADINA DI CASA D'ERCI","Casa d'Erci ","Grezzano","Borgo San Lorenzo","FI","2"
"5897","1689950","4870164","","","048004NW001","3","Monumento o complesso monumentale","6","Etnografia e antropologia","MOLINO FAINI","Via di Grezzano 70","Grezzano","Borgo San Lorenzo","FI","1"
"5898","1702731","4862921","43.891377  ","11.523617  ","048013NW001","1","Museo","2","Archeologia","MUSEO ARCHEOLOGICO COMPRENSORIALE DI DICOMANO","Piazza della Repubblica 3","","Dicomano","FI","1"
"5900","1589739","4899035","44.238855  ","10.123466  ","045007NW001","1","Museo","5","Scienza e tecnica","MUSEO DELLA STAMPA JACOPO DA FIVIZZANO","Via Labindo 6","","Fivizzano","MS","1"
"5903","1689088","4798329","43.313910  ","11.331358  ","052032US001","5","Centri scientifici-culturali","4","Storia e scienze naturali","SIMUS - ORTO BOTANICO E HERBARIUM","Via P.A. Mattioli 4","","Siena","SI","1"
"5904","1665185","4823847","43.549151  ","11.044524  ","048012XX3809","1","Museo","1","Arte","CONVENTO DEGLI AGOSTINIANI DI CERTALDO","Piazza SS. Jacopo e Filippo 2","","Certaldo","FI","1"
"5906","1681113","4849168","43.773273  ","11.250039  ","048017MA001","3","Monumento o complesso monumentale","1","Arte","CHIESA DI SANTA MARIA NOVELLA","Piazza Santa Maria Novella ","","Firenze","FI","1"
"5907","1621752","4796987","43.315733  ","10.501092  ","049007EP002","1","Museo","2","Archeologia","MUSEO ARCHEOLOGICO COMUNALE","Via F.D. Guerrazzi ","La Cinquantina","Cecina","LI","1"
"5908","1622574","4796405","43.310362  ","10.511093  ","049007EP001","2","Siti archeologici","2","Archeologia","PARCO ARCHEOLOGICO DELLA VILLA ROMANA DI SAN VINCENZINO","Via C. Ginori 33","San Vincenzino","Cecina","LI","1"
"5909","1591815","4876230","44.033328  ","10.145493  ","045010ST001","3","Monumento o complesso monumentale","98","architettura civile/militare","CASTELLO MALASPINA","Via del Forte 15","","Massa","MS","1"
"5910","1575917","4904628","44.290770  ","9.9512111  ","045016EP001","1","Museo","6","Etnografia e antropologia","MUSEO ETNOGRAFICO DELLA LUNIGIANA","Via dell'antico Mulino ","","Villafranca in Lunigiana","MS","1"
"5911","1592144","4891206","44.168086  ","10.152208  ","045007EP002","2","Siti archeologici","2","Archeologia","PARCO CULTURALE DELLE GROTTE DI EQUI E MUSEO ARCHEOLOGICO CESARE AMBROSI","Via della Buca ","Equi Terme","Fivizzano","MS","1"
"5912","1700066","4855603","43.826280  ","11.487727  ","048037EP001","1","Museo","6","Etnografia e antropologia","MUSEO DELLA VITE E DEL VINO DELLA RUFINA","Viale Duca della Vittoria 7","","Rufina","FI","1"
"5913","1690352","4887740","","","048018EP001","1","Museo","6","Etnografia e antropologia","MUSEO DEL PAESAGGIO STORICO DELL'APPENNINO","Località Moscheta di Firenzuola ","","Firenzuola","FI","1"
"5914","1690356","4887785","44.118333  ","11.378608  ","048018EP002","1","Museo","6","Etnografia e antropologia","MUSEO DELLA PIETRA SERENA DI FIRENZUOLA","Piazza Don Stefano Casini 1","","Firenzuola","FI","1"
"5915","1703899","4887523","44.112329  ","11.547598  ","048031EP002","1","Museo","6","Etnografia e antropologia","MUSEO DELLE GENTI DELLA MONTAGNA","Piazza Ettore Alpi 1","","Palazzuolo sul Senio","FI","1"
"5916","1703899","4887523","44.112329  ","11.547598  ","048031EP001","1","Museo","2","Archeologia","MUSEO ARCHEOLOGICO ALTO MUGELLO","Piazza Ettore Alpi 1","","Palazzuolo sul Senio","FI","1"
"5917","1613156","4841470","43.717482  ","10.404373  ","050026XX5905","1","Museo","1","Arte","GIPSOTECA DI ARTE ANTICA","Piazza  San Paolo all'Orto 20","","Pisa","PI","1"
"5918","1612669","4840810","43.711611  ","10.398187  ","050026PV001","1","Museo","3","Storia","DOMUS MAZZINIANA","Via G. Mazzini 71","","Pisa","PI","1"
"5920","1653145","4880255","44.059316  ","10.911682  ","047014EP003","3","Monumento o complesso monumentale","5","Scienza e tecnica","FERRIERA SABATINI DI PRACCHIA","Piazza Vinea 6","Pracchia","Pistoia","PT","1"
"5921","1598931","4867900","43.957424  ","10.232718  ","046024EP002","1","Museo","1","Arte","MUSEO DEI BOZZETTI PIERLUIGI GHERARDI","Via Sant'Agostino 1","","Pietrasanta","LU","2"
"5922","1598849","4867885","43.957296  ","10.231695  ","046024EP003","1","Museo","2","Archeologia","MUSEO ARCHEOLOGICO VERSILIESE 'BRUNO ANTONUCCI'","Piazza del Duomo ","","Pietrasanta","LU","1"
"5923","1599493","4867161","43.950690  ","10.239585  ","046024EP001","1","Museo","3","Storia","CASA NATALE DI GIOSUE' CARDUCCI","Via Valdicastello  ","Valdicastello Carducci","Pietrasanta","LU","1"
"5924","1649478","4877851","44.038433  ","10.865248  ","047019XX5924","3","Monumento o complesso monumentale","8","Specializzato","RIFUGI SMI DI CAMPO TIZZORO","Viale Luigi Orlando 325","Campo Tizzoro","San Marcello Pistoiese","PT","1"
"5925","1598806","4868022","43.958535  ","10.231178  ","046024XX5715","1","Museo","1","Arte","MUSEO ETTORE PESETTI","Via Piastroni 57","","Pietrasanta","LU","1"
"5926","1688936","4874480","","","048042EP003","1","Museo","6","Etnografia e antropologia","MUSEO DI VITA ARTIGIANA E CONTADINA CON PERSONAGGI IN MOVIMENTO - MUSEO DI LEPRINO","Località Sant`Agata ","","Scarperia","FI","1"
"5927","1687126","4876880","44.021069  ","11.334420  ","048042EP001","1","Museo","2","Archeologia","MUSEI DI S.AGATA: ARTE SACRA E ARCHEOLOGIA","Via della Pieve 3","Sant`Agata","Scarperia","FI","1"
"5928","1680935","4848463","43.766972  ","11.247599  ","048017EP012","1","Museo","1","Arte","FONDAZIONE SALVATORE ROMANO","Piazza S. Spirito 29","","Firenze","FI","1"
"5931","1606808","4890388","44.158730  ","10.335404  ","046006EP001","1","Museo","3","Storia","CIVICA RACCOLTA DI CERAMICHE RINASCIMENTALI","Piazza S. Giacomo ","","Camporgiano","LU","1"
"5932","1697687","4867582","43.934671  ","11.462605  ","048049EP002","1","Museo","1","Arte","MUSEO D'ARTE SACRA E RELIGIOSITA' POPOLARE BEATO ANGELICO","Piazza Don Milani ","","Vicchio","FI","1"
"5933","1696908","4867690","43.935852  ","11.452949  ","048049EP001","1","Museo","3","Storia","MUSEO CASA DI GIOTTO","Località Vespignano ","","Vicchio","FI","1"
"5934","1612107","4841380","43.716832  ","10.391336  ","050026US007","1","Museo","5","Scienza e tecnica","MUSEO DEGLI STRUMENTI PER IL CALCOLO","Via Nicola Pisano 25","","Pisa","PI","1"
"5936","1681813","4848276","43.765071  ","11.258435  ","048017EP007","1","Museo","1","Arte","MUSEO STEFANO BARDINI","Via dei Renai 37","","Firenze","FI","1"
"5937","1681021","4849379","43.775191  ","11.248975  ","048017XX5746","3","Monumento o complesso monumentale","1","Arte","COMPLESSO MONUMENTALE DI SANTA MARIA NOVELLA","Piazza della Stazione 4","","Firenze","FI","1"
"5938","1621752","4796987","43.315733  ","10.501092  ","0490071XX024","1","Museo","6","Etnografia e antropologia","MUSEO DELLA VITA E DEL LAVORO DELLA MAREMMA SETTENTRIONALE","Via F.D. Guerrazzi ","San Pietro in Palazzi","Cecina","LI","1"
"5941","1681679","4848932","43.771011  ","11.256985  ","048017PV016","1","Museo","8","Specializzato","MUSEO CASA DI DANTE","Via Santa Margherita 1","","Firenze","FI","1"
"5943","1653960","4866321","","","047014EC001","1","Museo","1","Arte","MUSEI DI PALAZZO ROSPIGLIOSI - MUSEO CLEMENTE ROSPIGLIOSI E MUSEO DIOCESANO","Via Ripa del Sale 3","","Pistoia","PT","1"
"5944","1618356","4894014","44.189586  ","10.480596  ","046010EP001","1","Museo","6","Etnografia e antropologia","MUSEO ETNOGRAFICO 'DON LUIGI PELLEGRINI","Via del Voltone 14","San Pellegrino in Alpe","Castiglione di Garfagnana","LU","1"
"5945","1690352","4887740","","","048018EP003","1","Museo","6","Etnografia e antropologia","MUSEO STORICO ETNOGRAFICO DI BRUSCOLI","Via della Chiesa 4","Bruscoli","Firenzuola","FI","1"
"5948","1665227","4814721","43.467024  ","11.042272  ","052028EP001","1","Museo","4","Storia e scienze naturali","MUSEO ORNITOLOGICO DI SAN GIMIGNIANO","Via Quercecchio ","","San Gimignano","SI","1"
"5949","1654208","4768256","43.051215  ","10.893123  ","053015EP009","1","Museo","1","Arte","COMPLESSO MUSEALE DI SAN PIETRO ALL'ORTO: MUSEO D'ARTE SACRA E CENTRO PER L'ARTE CONTEMPORANEA ","Corso Diaz 36","","Massa Marittima","GR","1"
"5950","1653921","4768036","43.049295  ","10.889546  ","053015EP002","1","Museo","8","Specializzato","MUSEO DELLA MINIERA DI MASSA MARITTIMA","Via Corridoni ","","Massa Marittima","GR","1"
"5951","1654013","4768274","43.051419  ","10.890741  ","053015EP006","1","Museo","8","Specializzato","MUSEO DI ARTE E STORIA DELLE MINIERE DI MASSA MARITTIMA","Piazza Matteotti ","","Massa Marittima","GR","1"
"5952","1654013","4768274","43.051419  ","10.890741  ","053015EP007","3","Monumento o complesso monumentale","3","Storia","TORRE DEL CANDELIERE","Piazza Matteotti ","","Massa Marittima","GR","1"
"5953","1645686","4843395","43.729133  ","10.808531  ","048019EP001","1","Museo","7","Territoriale","MUSEO DI FUCECCHIO","Piazza Vittorio Veneto 27","","Fucecchio","FI","1"
"6074","1718835","4723730","42.634827  ","11.668612  ","053019EP001","1","Museo","2","Archeologia","MUSEO CIVICO ARCHEOLOGICO DELLA CIVILTA' ETRUSCA","Piazza Fortezza Orsini 59/c","","Pitigliano","GR","1"
"5955","1717803","4853414","43.801577  ","11.707185  ","051036NW001","1","Museo","8","Specializzato","MUSEO DELLO SCI DI STIA","Vicolo dei Berignoli 4","","Stia","AR","1"
"6094","1718487","4723589","","","053019NW002","2","Siti archeologici","2","Archeologia","MUSEO ARCHEOLOGICO ALL'APERTO ALBERTO MANZI LA CITTA' DEI VIVI - LA CITTA' DEI MORTI","Via Cava del Gradone - S.P. 127 ","","Pitigliano","GR","1"
"5957","1650989","4807032","43.400839  ","10.864224  ","050039EP003","1","Museo","2","Archeologia","MUSEO ETRUSCO GUARNACCI","Via Don Minzoni 15","","Volterra","PI","1"
"5958","1672111","4809914","43.422222  ","11.125795  ","052012EP003","1","Museo","8","Specializzato","MUSEO DEL CRISTALLO","Via dei Fossi 8/a","","Colle Val d'Elsa","SI","1"
"6089","1681543","4848744","43.769346  ","11.255240  ","048017EP003","1","Museo","1","Arte","MUSEO DI PALAZZO VECCHIO","Piazza della Signoria ","","Firenze","FI","1"
"5960","1707247","4752087","42.893146  ","11.537824  ","053004EP001","1","Museo","2","Archeologia","ANTIQUARIUM CIVICO DI CASTEL DEL PIANO","Via Marconi 9","","Castel del Piano","GR","1"
"5963","1681506","4849125","43.772788  ","11.254908  ","048017PV003","3","Monumento o complesso monumentale","1","Arte","BATTISTERO DI SAN GIOVANNI A FIRENZE","Piazza San Giovanni ","","Firenze","FI","1"
"5964","1606459","4823156","43.553620  ","10.317656  ","049009XX007","1","Museo","1","Arte","MUSEO DIOCESANO DI LIVORNO","Via del Seminario 61","","Livorno","LI","1"
"5965","1635537","4862177","43.900090  ","10.687331  ","047012XX3866","1","Museo","1","Arte","PINACOTECA NELL'EX-MONASTERO BENEDETTINO DI SAN MICHELE ","Piazza Matteotti 13","","Pescia","PT","1"
"5967","1626305","4855559","43.842162  ","10.570859  ","046007PV002","1","Museo","6","Etnografia e antropologia","MUSEO CONTADINO DELLA PIANA DI LUCCA","Via Romana 100","","Capannori","LU","1"
"5969","1665293","4814826","43.467953  ","11.043119  ","052028EP003","1","Museo","1","Arte","PALAZZO COMUNALE, PINACOTECA, TORRE GROSSA","Piazza del Duomo 2","","San Gimignano","SI","1"
"5970","1681996","4849570","43.776666  ","11.261142  ","048017EP011","1","Museo","1","Arte","MUDI - MUSEO DEGLI INNOCENTI","Piazza SS. Annunziata 12","","Firenze","FI","1"
"5971","1673705","4858075","43.855185  ","11.160957  ","048005XX3979","5","Centri scientifici-culturali","8","Specializzato"," LAB - MUSEO DEL DESIGN ITALIANO","Via Sandro Pertini 93","","Calenzano","FI","1"
"5973","1726362","4774983","43.093650  ","11.780930  ","052015EP001","1","Museo","1","Arte","MUSEO CIVICO E PINACOTECA CROCIANI","Via Ricci 10","","Montepulciano","SI","1"
"5974","1733335","4816520","43.465083  ","11.884108  ","051002XX5476","1","Museo","1","Arte","FRATERNITA DEI LAICI","Via G. Vasari 6","","Arezzo","AR","1"
"5975","1634005","4856805","43.852022  ","10.666922  ","046021PV001","3","Monumento o complesso monumentale","3","Storia","FORTEZZA DI MONTECARLO","Via Fortezza 4","","Montecarlo","LU","1"
"5976","1598159","4872065","","","046028XX5976","2","Siti archeologici","2","Archeologia","ANTIQUARIUM ESPOSITIVO DELLA VILLA MEDICEA DI SERAVEZZA","Viale Leonetto Amadei 230","","Seravezza","LU","1"
"5977","1685037","4815447","43.468928  ","11.287225  ","052005EP001","1","Museo","2","Archeologia","MUSEO ARCHEOLOGICO DEL CHIANTI SENESE","Piazza del Comune 17/18","","Castellina in Chianti","SI","1"
"5979","1636369","4839788","43.698438  ","10.691995  ","050035XX5979","2","Siti archeologici","2","Archeologia","PARCO ARCHEOLOGICO LA ROCCA DI S. MARIA A MONTE","Piazza Della Vittoria ","","Santa Maria a Monte","PI","1"
"5980","1631671","4835523","43.660906  ","10.632681  ","050029MA001","1","Museo","8","Specializzato","MUSEO PIAGGIO 'GIOVANNI ALBERTO AGNELLI'","Viale Rinaldo Piaggio 7","","Pontedera","PI","1"
"5981","1641966","4836650","43.669152  ","10.760592  ","050022EP001","1","Museo","7","Territoriale","MUSEO CIVICO DI PALAZZO GUICCIARDINI","Via Guicciardini 55","","Montopoli in Val d'Arno","PI","2"
"5982","1651986","4855177","43.833890  ","10.890053  ","047006EC001","1","Museo","2","Archeologia","MUSEO CIVICO ARCHEOLOGICO DI LARCIANO CASTELLO","Piazza Castello 1","Larciano Castello","Larciano","PT","1"
"5983","1673000","4736514","42.761526  ","11.113933  ","053011NW001","5","Centri scientifici-culturali","2","Archeologia","MUSEOLAB CITTA' DI GROSSETO","Via Vinzaglio 27","","Grosseto","GR","1"
"6109","1684613","4853041","43.807251  ","11.294834  ","048015EP001","1","Museo","2","Archeologia","MUSEO CIVICO ARCHEOLOGICO - SCAVI E TEATRO ROMANO","Via Portigiani 1","","Fiesole","FI","1"
"5990","1654334","4768181","43.050517  ","10.894653  ","053015NW001","1","Museo","8","Specializzato","MUSEO MINERALOGICO ISTITUTO TECNICO INDUSTRIALE 'B. LOTTI'","Viale Martiri della Niccioleta 1","","Massa Marittima","GR","1"
"6097","1718847","4723708","42.634632  ","11.668751  ","053019EC001","1","Museo","1","Arte","MUSEO DIOCESANO DI PALAZZO ORSINI","Piazza Fortezza Orsini 4","","Pitigliano","GR","1"
"5993","1688837","4798441","43.314981  ","11.328298  ","052032PV013","1","Museo","8","Specializzato","MUSEO DELLA CONTRADA DELLA PANTERA","Via S. Quirico 26","","Siena","SI","1"
"5994","1688930","4798803","43.318209  ","11.329571  ","052032PV021","3","Monumento o complesso monumentale","1","Arte","BATTISTERO DELLA CATTEDRALE DI SIENA","Piazza San Giovanni ","","Siena","SI","1"
"5995","1688935","4798739","43.317630  ","11.329606  ","052032PV020","1","Museo","1","Arte","MUSEO DELL'OPERA DELLA METROPOLITANA DI SIENA","Piazza Duomo 8","","Siena","SI","1"
"5996","1688835","4798683","43.317151  ","11.328364  ","052032NW006","3","Monumento o complesso monumentale","1","Arte","CRIPTA E SCALE DI SAN GIOVANNI","Piazza Duomo ","","Siena","SI","1"
"5997","1688835","4798683","43.317151  ","11.328364  ","052032PV022","3","Monumento o complesso monumentale","1","Arte","CATTEDRALE DI SIENA E LIBRERIA PICCOLOMINI","Piazza del Duomo ","","Siena","SI","1"
"5998","1689315","4799231","43.321961  ","11.334464  ","052032EC001","1","Museo","1","Arte","ORATORIO DI SAN BERNARDINO E MUSEO DIOCESANO DI ARTE SACRA","Piazza S. Francesco 9","","Siena","SI","1"
"5999","1720509","4789997","43.230421  ","11.715083  ","052033EC001","1","Museo","1","Arte","RACCOLTA D'ARTE SACRA DELLA COLLEGIATA DI SAN BIAGIO A SCROFIANO","Via Collegiata 2","SCROFIANO","Sinalunga","SI","1"
"6001","1689216","4798804","43.318148  ","11.333099  ","052032PV019","3","Monumento o complesso monumentale","1","Arte","SINAGOGA DI SIENA","Vicolo delle Scotte 14","","Siena","SI","1"
"6003","1682342","4849139","43.772709  ","11.265290  ","048017PV008","1","Museo","1","Arte","SINAGOGA E MUSEO DI ARTE E STORIA EBRAICA","Via Luigi Carlo Farini 6","","Firenze","FI","1"
"6004","1665242","4815045","43.469941  ","11.042554  ","052028EP002","1","Museo","2","Archeologia","MUSEO ARCHEOLOGICO, SPEZIERA DI SANTA FINA, GALLERIA D'ARTE MODERNA E CONTEMPORANEA ""RAFFAELE DE GRADA""","Via Folgore 11","","San Gimignano","SI","1"
"6106","1662920","4844405","43.734637  ","11.022690  ","048028EP001","1","Museo","1","Arte","MUSEO DELLA CERAMICA DI MONTELUPO","Piazza Vittorio Veneto 10","","Montelupo Fiorentino","FI","1"
"6006","1662006","4843914","43.730420  ","11.011211  ","048028NW001","1","Museo","2","Archeologia","MUSEO ARCHEOLOGICO E AREE ARCHEOLOGICHE DI MONTELUPO FIORENTINO","Via Santa Lucia 33","","Montelupo Fiorentino","FI","1"
"6007","1658964","4867340","43.941863  ","10.980414  ","047014PV003","1","Museo","1","Arte","COLLEZIONE GORI - FATTORIA DI CELLE","Via Montalese 7","Santomato di Pistoia","Pistoia","PT","1"
"6008","1645794","4858978","43.869344  ","10.814119  ","047009EC001","1","Museo","1","Arte","MUSEO DEL SANTUARIO DI MARIA SANTISSIMA DELLA FONTENUOVA","Piazza Giuseppe Giusti 305/e","","Monsummano Terme","PT","1"
"6009","1626651","4814544","43.472952  ","10.565547  ","050034EP001","1","Museo","8","Specializzato","ECOMUSEO DELL'ALABASTRO. SEZIONE DI SANTA LUCE","Piazza Rimembranza 19","","Santa Luce","PI","1"
"6010","1612442","4841773","43.720312  ","10.395571  ","050026US005","1","Museo","5","Scienza e tecnica","MUSEO DI ANATOMIA UMANA ""FILIPPO CIVININI""","Via Roma 55","","Pisa","PI","1"
"6011","1612661","4841250","43.715575  ","10.398186  ","050026NW002","1","Museo","1","Arte","BLU PALAZZO MUSEO D'ARTE E CULTURA","Lungarno Gambacorti 32","","Pisa","PI","1"
"6012","1620861","4855825","43.845468  ","10.503228  ","046017ST001","1","Museo","4","Storia e scienze naturali","GABINETTO DI STORIA NATURALE DEL LICEO MACHIAVELLI","Via degli Asili 35","","Lucca","LU","1"
"6013","1650706","4807221","43.402590  ","10.860790  ","050039PV002","3","Monumento o complesso monumentale","1","Arte","PALAZZO VITI","Via dei Sarti 41","","Volterra","PI","1"
"6014","1665209","4823821","","","048012EP001","1","Museo","1","Arte","MUSEO CIVICO DEL PALAZZO PRETORIO DI CERTALDO","Piazzetta del Vicariato 3","","Certaldo","FI","1"
"6015","1589694","4898907","","","045007NW002","1","Museo","6","Etnografia e antropologia","MUSEO DEL LAVORO NELLA VALLE DEL LUCIDO","Piazza della Liberazione 3","Monzone","Fivizzano","MS","1"
"6016","1651329","4846798","","","048011XX4793","1","Museo","3","Storia","MUMELOC - MUSEO DELLA MEMORIA LOCALE DI CERRETO GUIDI","Piazza Dante Desideri ","","Cerreto Guidi","FI","1"
"6017","1716839","4785140","43.187795  ","11.668026  ","052036XX5313","1","Museo","2","Archeologia","RACCOLTA ARCHEOLOGICA COLLEZIONE PALLAVICINI","Via  Taverne  8","","Trequanda","SI","1"
"6018","1681546","4848743","43.769337  ","11.255273  ","048017NW100","5","Centri scientifici-culturali","3","Storia","ASSOCIAZIONE MUS.E","Piazza Signoria 1","","Firenze","FI","1"
"6019","1640824","4755068","","","053009EP001","1","Museo","8","Specializzato","MUSEO DEL FERRO E DELLA GHISA","Comprensorio ex Ilva ","","Follonica","GR","1"
"6020","1708717","4756145","","","053025EC001","3","Monumento o complesso monumentale","1","Arte","IL GIARDINO DI DANIEL SPOERRI","Località Il Giardino 1","","Seggiano","GR","1"
"6021","1643350","4753571","42.921173  ","10.756100  ","053009EP002","1","Museo","1","Arte","PINACOTECA CIVICA ","Piazza del Popolo 1","","Follonica","GR","1"
"6023","1703081","4862297","43.885662  ","11.527727  ","048013EP001","2","Siti archeologici","2","Archeologia","SCAVI ARCHEOLOGICI DI FRASCOLE","Località Poggio di Frascole ","","Dicomano","FI","1"
"6024","1656862","4832868","43.632126  ","10.944158  ","048010EC001","1","Museo","1","Arte","MUSEO DI SANTA VERDIANA","Piazza Santa Verdiana ","","Castelfiorentino","FI","1"
"6025","1693360","4812740","43.442465  ","11.389076  ","052013XX3870","1","Museo","1","Arte","CASTELLO DI AMA PER L'ARTE CONTEMPORANEA ","Località Ama ","","Gaiole in Chianti","SI","1"
"6026","1630792","4765347","43.029424  ","10.605050  ","049002PV001","1","Museo","6","Etnografia e antropologia","MUSEO DELLA CIVILTA' DEL LAVORO","Via della Fiera 1","Venturina","Campiglia Marittima","LI","1"
"6027","1606684","4822493","43.547623  ","10.320306  ","049009PV001","1","Museo","1","Arte","MUSEO EBRAICO YESHIVA' MARINI DI LIVORNO","Via Micali 21","","Livorno","LI","1"
"6028","1685867","4850590","43.784888  ","11.309554  ","048017NW010","1","Museo","1","Arte","COLLEZIONE 'BERENSON' - VILLA I TATTI","Via di Vincigliata 26","Settignano","Firenze","FI","1"
"6029","1643665","4861981","43.896784  ","10.788436  ","047011NW001","1","Museo","1","Arte","MUSEO DELLA PROPOSITURA DI S. PIETRO APOSTOLO","Via Prataccio 7","Montecatini Alto","Montecatini Terme","PT","1"
"6099","1571097","4907341","","","045012XX4151","1","Museo","3","Storia","CASA DI DANTE IN LUNIGIANA ","Via Signorini 2","","Mulazzo","MS","1"
"6031","1681594","4700594","42.436305  ","11.207443  ","053018EP004","1","Museo","2","Archeologia","MUSEO ARCHEOLOGICO DI ORBETELLO","Via Mura di Levante  7","","Orbetello","GR","1"
"6032","1620696","4855332","43.841055  ","10.501060  ","046017EP003","1","Museo","3","Storia","MUR - MUSEO DEL RISORGIMENTO","Cortile Cortile degli Svizzeri 6","","Lucca","LU","1"
"6033","1753710","4829098","43.571538  ","12.141485  ","051034EP001","1","Museo","1","Arte","MUSEO CIVICO DI SANSEPOLCRO","Via Aggiunti 65","","Sansepolcro","AR","1"
"6102","1698264","4824393","43.546011  ","11.453867  ","051013EP001","1","Museo","8","Specializzato","MINE - MUSEO DELLE MINIERE E DEL TERRITORIO","Via  II Febbraio ","Castelnuovo dei Sabbioni","Cavriglia","AR","1"
"6035","1712534","4830200","43.594318  ","11.632603  ","051020PV001","1","Museo","1","Arte","CASA VENTURI, ARCHIVIO VENTURINO VENTURI, CENTRO DI DOCUMENTAZIONE PER LA SCULTURA ITALIANA DEL '900","Via Martiri della Libertà 7","","Loro Ciuffenna","AR","1"
"6037","1712472","4830071","43.593179  ","11.631782  ","051020EP001","1","Museo","1","Arte","MUSEO VENTURINO VENTURI","Piazza Matteotti 7","","Loro Ciuffenna","AR","1"
"6039","1665954","4791904","43.261549  ","11.044341  ","052025EP001","1","Museo","5","Scienza e tecnica","MUSEO LE ENERGIE DEL TERRITORIO","Via Tiberio Gazzei 2","","Radicondoli","SI","1"
"6041","1680628","4848597","43.768251  ","11.243825  ","048017EP006","3","Monumento o complesso monumentale","1","Arte","CAPPELLA BRANCACCI","Piazza del Carmine 14","","Firenze","FI","1"
"6042","1624901","4753207","42.921138  ","10.530057  ","049012EP002","1","Museo","3","Storia","MUSEO DEL CASTELLO E DELLE CERAMICHE MEDIEVALI","Viale del Popolo ","","Piombino","LI","1"
"6043","1689968","4877379","44.024834  ","11.370022  ","048042XX4777","1","Museo","3","Storia","CENTRO DI DOCUMENTAZIONE E RICERCHE SULLA SECONDA GUERRA MONDIALE","Località Ponzalla 47","Ponzalla","Scarperia","FI","2"
"6045","1673861","4859059","43.863995  ","11.163218  ","048005EP001","1","Museo","3","Storia","MUSEO COMUNALE DEL FIGURINO STORICO","Via del Castello 7","","Calenzano","FI","1"
"6047","1668562","4833685","43.636918  ","11.089360  ","048030EP001","1","Museo","7","Territoriale","MUSEO DELLA VITE E DEL VINO DEL CENTRO PER LA CULTURA DEL VINO 'I LECCI'","Via Lucardese 74","","Montespertoli","FI","1"
"6048","1681755","4849016","43.771741  ","11.257958  ","048017US003","1","Museo","6","Etnografia e antropologia","MUSEO DI STORIA NATURALE DELL'UNIVERSITA' DI FIRENZE - SEZIONE ANTROPOLOGIA E ETNOLOGIA","Via del Proconsolo 12","","Firenze","FI","1"
"6049","1681886","4849751","43.778328  ","11.259836  ","048017US006","1","Museo","4","Storia e scienze naturali","MUSEO DI STORIA NATURALE DELL'UNIVERSITA' DI FIRENZE - SEZIONE BOTANICA ""F.PARLATORE""","Via Giorgio La Pira 4","","Firenze","FI","1"
"6050","1681886","4849751","43.778328  ","11.259836  ","048017US005","1","Museo","4","Storia e scienze naturali","MUSEO DI STORIA NATURALE DELL'UNIVERSITA' DI FIRENZE - SEZIONE GEOLOGIA E PALEONTOLOGIA","Via  Giorgio La Pira 4","","Firenze","FI","1"
"6051","1681886","4849751","43.778328  ","11.259836  ","048017US004","1","Museo","4","Storia e scienze naturali","MUSEO DI STORIA NATURALE DELL'UNIVERSITA' DI FIRENZE - SEZIONE MINERALOGIA E LITOLOGIA","Via  Giorgio La Pira 4","","Firenze","FI","1"
"6052","1680904","4848200","43.764614  ","11.247129  ","048017US002","1","Museo","4","Storia e scienze naturali","MUSEO DI STORIA NATURALE DELL'UNIVERSITA' DI FIRENZE - SEZIONE ZOOLOGIA LA SPECOLA","Via Romana 17","","Firenze","FI","1"
"6053","1689107","4798783","43.317990  ","11.331745  ","052032EP003","1","Museo","1","Arte","MUSEO CIVICO DI SIENA","Piazza del Campo 1","","Siena","SI","1"
"6054","1688872","4798659","43.316926  ","11.328813  ","052032EP004","1","Museo","1","Arte","COMPLESSO MUSEALE SANTA MARIA DELLA SCALA","Piazza Duomo 1","","Siena","SI","1"
"6055","1689107","4798783","43.317990  ","11.331745  ","052032EP005","3","Monumento o complesso monumentale","1","Arte","TORRE DEL MANGIA","Piazza del Campo 1","","Siena","SI","1"
"6056","1571097","4907341","","","045012NW001","1","Museo","3","Storia","MUSEO ARCHIVIO DEI MALASPINA","Piazza Malaspina 5","","Mulazzo","MS","1"
"6057","1682230","4849625","43.777108  ","11.264067  ","048017PV012","1","Museo","5","Scienza e tecnica","FONDAZIONE SCIENZA E TECNICA DI FIRENZE - MUSEO, GABINETTO E PLANETARIO","Via Giusti 29","","Firenze","FI","1"
"6058","1722874","4794994","43.274671  ","11.746187  ","051021EP001","1","Museo","1","Arte","MUSEO COMUNALE DI LUCIGNANO","Piazza del Tribunale 22","","Lucignano","AR","1"


